BANK,IFSC,BRANCH,ADDRESS,CONTACT,CITY,DISTRICT,STATE
KALUPUR COMMERCIAL COOPERATIVE BANK,KCCB0WRB054,WAGHODIYA ROAD,"1-2,GIRIRAJ BAUG SOCIETY,NEAR PRABHAT BUS STATION,WAGHODIYA ROAD,VADODARA-390019",2522900,VADODARA,VADODARA,GUJARAT
KALUPUR COMMERCIAL COOPERATIVE BANK,KCCB0VTV009,VATWA,"PLOT NO.1110, GIDC, PHASE-3 F-ROAD,NR.ABAD BAKERY, VATVA, AHMEDABAD - 382445",25831067,AHMEDABAD,AHMEDABAD,GUJARAT
KALUPUR COMMERCIAL COOPERATIVE BANK,KCCB0VSR015,VASTRAPUR,"HIMALAYA ARCADE, NR. VASTRAPUR LAKE, VASTRAPUR, AHMEDABAD-380015",26750673,AHMEDABAD,AHMEDABAD,GUJARAT
KALUPUR COMMERCIAL COOPERATIVE BANK,KCCB0VSN020,VASNA,"NR. RATNASAGAR FLAT,KESARIYAJI CHAR RASTA, JIVRAJ MEHTA HOSPITAL ROAD, VASNA, AHMEDABAD-380007",26611279,AHMEDABAD,AHMEDABAD,GUJARAT
KALUPUR COMMERCIAL COOPERATIVE BANK,KCCB0VDD024,OLD PADRA - VADODARA,"54,PUNITNAGAR SOC, OPP.VCCINE INSUTITUTE, OLD PADRA ROAD, VADODARA-390015",2354367,VADODARA,VADODARA,GUJARAT
KALUPUR COMMERCIAL COOPERATIVE BANK,KCCB0USM047,USMANPURA NEW,"3-4, AALIN COMPLEX, NEAR GUJARAT VIDHYAPITH, USMANPURA, AHMEDABAD-380014",27541415,AHMEDABAD,AHMEDABAD,GUJARAT
KALUPUR COMMERCIAL COOPERATIVE BANK,KCCB0USM006,USHMANPURA,"KIRTISAGAR COMPLEX, NR. RANCHODJI MANDIR, USMANPURA, AHMEDABAD-380014┬á",27561140,AHMEDABAD,AHMEDABAD,GUJARAT
KALUPUR COMMERCIAL COOPERATIVE BANK,KCCB0UDN040,UDHANA UDHYOGNAGAR,"OPP. UDHNA ACADEMIC SCHOOL,CENTRAL ROAD NO. 14,UDHYOGNAGAR,UDHNA,SURAT-394210",2758492,SURAT,SURAT,GUJARAT
KALUPUR COMMERCIAL COOPERATIVE BANK,KCCB0UDN037,UDHNA - SURAT,"1ST. FLOOR, SURYA PLAZA,NEAR BHATAR SQUARE,SURAT-385007",2234111,SURAT,SURAT,GUJARAT
KALUPUR COMMERCIAL COOPERATIVE BANK,KCCB0TXM032,TEXTILE MARKET - SURAT,"38-39, AJANTA SHOPPING CENTRE,NEAR KINNARI CINEMA,RING ROAD,SURAT-395002",2343442,SURAT,SURAT,GUJARAT
KALUPUR COMMERCIAL COOPERATIVE BANK,KCCB0SXS008,ST. XAVIERS,"AKSHAR ARCADE, GROUND FLOOR, OPP MEMNAGAR FIRE STATION, NAVRANGPURA,┬áAHMEDABAD-380009",26462241,AHMEDABAD,AHMEDABAD,GUJARAT
KALUPUR COMMERCIAL COOPERATIVE BANK,KCCB0SNN005,SANAND,"NR.KHARID VECHAN SANGH,NALSAROVAR THREE ROAD, TAL : SANAND.┬áDIST: AHMEDABAD-382110",224351,SANAND,AHMEDABAD,GUJARAT
KALUPUR COMMERCIAL COOPERATIVE BANK,KCCB0SMR007,S M ROAD,"1,VASANT RAJAB SOC, NR. P & T COLONY, SATELLITE ROAD,┬áSATELLITE┬á,AHMEDABAD-380015",26731182,AHMEDABAD,AHMEDABAD,GUJARAT
KALUPUR COMMERCIAL COOPERATIVE BANK,KCCB0SME049,SME-MID CORPORATE,"2ND FLOOR, ANNEXE BUILDING, KALUPUR BANK BHAVAN, NEAR INCOME TAX CIRCLE, ASHRAM ROAD, AHMEDABAD - 380014",27582020,AHMEDABAD,AHMEDABAD,GUJARAT
KALUPUR COMMERCIAL COOPERATIVE BANK,KCCB0SLR012,SOLA ROAD,"1, TIRTHNAGAR CO-OP HOU. SOCIETY, PART - III, OPP. SARVODAYA SOCIETY PART I, BHUYANGDEV CHAR RASTA, SATASHAR ROAD, SOLA ROAD, AHMEDABAD-380061",27433529,AHMEDABAD,AHMEDABAD,GUJARAT
KALUPUR COMMERCIAL COOPERATIVE BANK,KCCB0SDR031,STADIUM ROAD,"ROYAL HOUSE 16-B, MAHADEV NAGER SOC. STADIUM ROAD, NAVRANGPURA, AHMEDABAD-380014",26462058,AHMEDABAD,AHMEDABAD,GUJARAT
KALUPUR COMMERCIAL COOPERATIVE BANK,KCCB0SCT034,SCIENCE CITY,"7-8-9 MORYA TIME SQUARE,INFRONT OFF R.K. ROYAL HALL,SCIENCECITY ROAD,SOLA,AHMEDABAD-380061",29299940,AHMEDABAD,AHMEDABAD,GUJARAT
KALUPUR COMMERCIAL COOPERATIVE BANK,KCCB0SCR023,SWASTIK,"SWASTIK CHAR RASTA, NR. SHUSHILABEN RATILAL HALL,C.G.ROAD, NAVRANGPUARA, AHMEDABAD-380009",26406945,AHMEDABAD,AHMEDABAD,GUJARAT
KALUPUR COMMERCIAL COOPERATIVE BANK,KCCB0SBP055,SOUTHBOPAL,"20,21,120,121,ORCHID CENTER,NEAR SOBO CENTER,SOUTH BOPAL,AHMEDABAD",29795199,AHMEDABAD,AHMEDABAD,GUJARAT
KALUPUR COMMERCIAL COOPERATIVE BANK,KCCB0RTGS4C,RTGS-HO,"KALUPUR BANK BHAVAN NR, INCOME TAX, ASHRAM ROAD, AHMEDABAD- 380014",27582020,AHMEDABAD,AHMEDABAD,GUJARAT
KALUPUR COMMERCIAL COOPERATIVE BANK,KCCB0RRD042,RING ROAD,"PARISHRAM COMPLEX.OPP. PARAG HOUSE, RING ROAD,SURAT - 395003",2310546,SURAT,SURAT,GUJARAT
KALUPUR COMMERCIAL COOPERATIVE BANK,KCCB0RJT057,RAJKOT,"GANESH TRADE CENTER,PLOT NO 105,BETWEEN KKV HALL AND INDIRA CIRCLE,150 FEET RING ROAD,RAJKOT-360005",2578003,RAJKOT,RAJKOT,GUJARAT
KALUPUR COMMERCIAL COOPERATIVE BANK,KCCB0PSR041,PANDESARA,"240 SHIV NAGAR SOCIETY,G.I.D.C ROAD,PANDESARA,SURAT - 394221",2893245,SURAT,SURAT,GUJARAT
KALUPUR COMMERCIAL COOPERATIVE BANK,KCCB0POR053,POR,"GROUND FLOOR,SWAMINARAYAN COMPLEX,BLOCK NO 83,AMBICA NAGAR SOCIETY,POR-KAYAVAROHAN ROAD,POR-391243",2830321,VADODARA,VADODARA,GUJARAT
KALUPUR COMMERCIAL COOPERATIVE BANK,KCCB0PCV013,PANCHVATI,"SUN POINT SHANTISADAN SOC,NR. PARIMAL GARDEN, ELLIS BRIDGE, AHMEDABAD-380006",26444952,AHMEDABAD,AHMEDABAD,GUJARAT
KALUPUR COMMERCIAL COOPERATIVE BANK,KCCB0PCR011,PATRAKAR COLONY,"ANKUR COMMERCIAL CENTRE, NR.ANKUR BUS STAND,NARANPURA, AHMEDABAD-380013",27433028,AHMEDABAD,AHMEDABAD,GUJARAT
KALUPUR COMMERCIAL COOPERATIVE BANK,KCCB0NVW016,NAVA WADAJ,"NEEL COMPLEX, OPP.VYAS WADI, NAVA WADAJ,┬áAHMEDABAD-380013",27646976,AHMEDABAD,AHMEDABAD,GUJARAT
KALUPUR COMMERCIAL COOPERATIVE BANK,KCCB0NRM097,NIRMA UNIVERSITY,"NIRMA INSTITUTE OF TECHNOLOGY,SGHIGHWAY,CHHARODI",,AHMEDABAD,AHMEDABAD,GUJARAT
KALUPUR COMMERCIAL COOPERATIVE BANK,KCCB0NPR044,ANAND MAHAL ROAD,"MADHAV COMPLEX, NEW RANCHHOD NAGAR, OPP.PRIME ARCADE, ANAND MAHAL ROAD, ADAJAN,SURAT-395009",2462848,SURAT,SURAT,GUJARAT
KALUPUR COMMERCIAL COOPERATIVE BANK,KCCB0NAR050,NARODA,"GROUND FLOOR 7,8,9 AASHTHA AVENUE,NEAR BSNL TELE. EXCHANGE,GIDC,NARODA,AHMEDABAD-382330",22812120,AHMEDABAD,AHMEDABAD,GUJARAT
KALUPUR COMMERCIAL COOPERATIVE BANK,KCCB0MNN025,MANINAGAR,"39, RADHA VALLABH COLONY NR. DURGA SCHOOL,┬áJAWAHAR CHOWK CHAR RASTA MANINAGAR,┬áAHMEDABAD ┬û 380008┬á",25452004,AHMEDABAD,AHMEDABAD,GUJARAT
KALUPUR COMMERCIAL COOPERATIVE BANK,KCCB0MJL036,MANJALPUR - VADODARA,"1,2,3, VINAYAK COMPLEX, NR. SARASWATI CHAR RASTA, MANJALPUR ROAD, VADODARA-390011",2661751,VADODARA,VADODARA,GUJARAT
KALUPUR COMMERCIAL COOPERATIVE BANK,KCCB0MDR030,MADHUPURA,"NILGAGAN PLAZA, OPP. POLICE COMMISSIONERS OFFICE, SHAHIBAUG ROAD, MADHUPURA, AHMEDABAD - 380 004.",25626699,AHMEDABAD,AHMEDABAD,GUJARAT
KALUPUR COMMERCIAL COOPERATIVE BANK,KCCB0KTW039,KATHWADA,"PLOT NO - 545,DIVYA MANGAL ARCAD,KATHWADA GIDC,AHMEDABAD - 382430",65218442,AHMEDABAD,AHMEDABAD,GUJARAT
KALUPUR COMMERCIAL COOPERATIVE BANK,KCCB0KMD002,KHOKHARA,"NEW GRAIN MARKET, OPP. ANUPAM CINEMA, KHOKHRA MAHEMDABAD,┬áAHMEDABAD - 380008",22162778,AHMEDABAD,AHMEDABAD,GUJARAT
KALUPUR COMMERCIAL COOPERATIVE BANK,KCCB0KMB027,KHAMBHAT,"NIJANANDA,NR. DR.COMPLEX,┬áSTATION ROAD, KHAMBHAT┬á, TALUKA: KHAMBHAT, DIST : ANAND-388620",223644,KHAMBHAT,ANAND,GUJARAT
KALUPUR COMMERCIAL COOPERATIVE BANK,KCCB0KLP001,KALUPUR - CHOKHA BAZAR,"415,CHOKHA BAZAR,KALUPUR,┬áAHMEDABAD 380002",22139422,AHMEDABAD,AHMEDABAD,GUJARAT
KALUPUR COMMERCIAL COOPERATIVE BANK,KCCB0KLB026,KALBADEVI - MUMBAI,"B 3-7 MANGALDAS BUILDING NO. 1, SHAMALDAS GANDHI MARG┬á,KALBADEVI,┬áMUMBAI - 400002",22074013,MUMBAI,MUMBAI,MAHARASHTRA
KALUPUR COMMERCIAL COOPERATIVE BANK,KCCB0JOD051,JODHPUR,1 GROUND FLOOR SACHET-4 BUILDING PRERANA TRITH DERASAR ROAD JODHPUR SATTELLITE AHMEDABAD - 380015,26922291,AHMEDABAD,AHMEDABAD,GUJARAT
KALUPUR COMMERCIAL COOPERATIVE BANK,KCCB0JBR035,JETALPUR,"PANDIT DINDAYAL MARKET, APMC, JETALPUR-BAREJA ROAD,JETALPUR-382426",233755,JETALPUR,AHMEDABAD,GUJARAT
KALUPUR COMMERCIAL COOPERATIVE BANK,KCCB0ISP019,ISANPUR,"2, ASOPALAVNAGAR SOC, NR.RAMWADI BUS-STOP, ISANPUR, AHMEDABAD-382443",25330540,AHMEDABAD,AHMEDABAD,GUJARAT
KALUPUR COMMERCIAL COOPERATIVE BANK,KCCB0GNR038,GANDHINAGAR,"KADI SARVE VIDHLAYAY CAMPUS, GATE NO.1, NEAR GH-6,SECTOR-23,GANDHINAGAR-382023",23241962,GANDHINAGAR,GANDHINAGAR,GUJARAT
KALUPUR COMMERCIAL COOPERATIVE BANK,KCCB0GHA046,GHATLODIYA,"NEAR OLD PANCHYAT OFFICE, GHATLODIYA GAM, AHMEDABAD-380061",27481547,AHMEDABAD,AHMEDABAD,GUJARAT
KALUPUR COMMERCIAL COOPERATIVE BANK,KCCB0DRV017,DRIVE IN,"KAMDHENU BHAVAN,OPP. T.V.TOWER, DRIVE-IN ROAD, AHMEDABAD-380054",26859486,AHMEDABAD,AHMEDABAD,GUJARAT
KALUPUR COMMERCIAL COOPERATIVE BANK,KCCB0CHH056,CHHATRAL,"PLOT NO 5/H-4/16,CHHATRAL INDUSTRIAL ESTATE,OPP HDFC BANK,CHHATRAL,TA-KALOL,DIST-GANDHINAGAR-382729",233600,KALOL,GANDHINAGAR,GUJARAT
KALUPUR COMMERCIAL COOPERATIVE BANK,KCCB0CGR048,MEMCO CROSS ROAD,"29,30 SHAYONA CENTER, BLOCK A, MEMCO CROSS ROAD, AHMEDABAD - 380 025",26444112,AHMEDABAD,AHMEDABAD,GUJARAT
KALUPUR COMMERCIAL COOPERATIVE BANK,KCCB0BVL003,BAVLA,"R.A COMPLEX (MUKHINU JIN) STATION ROAD BAZAAR, BAVLA TA:- BAVLA,DIST :AHMEDABAD-382220",232878,BAVLA,AHMEDABAD,GUJARAT
KALUPUR COMMERCIAL COOPERATIVE BANK,KCCB0BRJ004,BAREJA,"TIN BATTI, AT : BAREJA, TA : DASKROI,┬áDIST : AHMEDABAD-382425",233917,BAREJA,AHMEDABAD,GUJARAT
KALUPUR COMMERCIAL COOPERATIVE BANK,KCCB0BPN028,BAPUNAGAR,"SHYAM SHIKHAR COMPLEX┬á,OPP:DINESH CHEMBERS,┬áINDIA COLONY CHAR RASTA,BAPUNAGAR┬á,AHMEDABAD-380024┬á",26462058,AHMEDABAD,AHMEDABAD,GUJARAT
KALUPUR COMMERCIAL COOPERATIVE BANK,KCCB0BPL018,BOPAL,"79,SHIVALISH SOC, NR.INDUCTROTHERM LTD. BOPAL ROAD, AHMEDABAD-380058",234590,AHMEDABAD,AHMEDABAD,GUJARAT
KALUPUR COMMERCIAL COOPERATIVE BANK,KCCB0BGL043,BHAGAL,"16,17 AARYAMAN ARCADE,OPP. GAJANAN LIBRARY,TOWER ROAD, BHAGAL,SURAT - 395003",2453054,SURAT,SURAT,GUJARAT
KALUPUR COMMERCIAL COOPERATIVE BANK,KCCB0BDK021,BODAKDEV,"GOYAL TERACE,NR.JUDGES BUNGLOW, BODAKDEV,┬áAHMEDABAD-380054",26859551,AHMEDABAD,AHMEDABAD,GUJARAT
KALUPUR COMMERCIAL COOPERATIVE BANK,KCCB0ASR010,ASHRAM ROAD,"KALUPUR BANK BHAVAN NR, INCOME TAX, ASHRAM ROAD, AHMEDABAD- 380014",27582022,AHMEDABAD,AHMEDABAD,GUJARAT
KALUPUR COMMERCIAL COOPERATIVE BANK,KCCB0ANN022,ANAND,"JAY TOWER, AMUL DAIRY ROAD, ANAND,┬áDIST : ANAND-388001",240303,ANAND,ANAND,GUJARAT
KALUPUR COMMERCIAL COOPERATIVE BANK,KCCB0AND052,ANDHERI,UNIT NO 4 GROUND AND FIRST FLOOR TIMES SQUARE WING-A OPP. MITTAL INDUSTRIAL ESTATE ANDHERI-KURLA ROAD MAROL ANDHERI-E MUMBAI-400059,28510015,MUMBAI,GREATER BOMBAY,MAHARASHTRA
KALUPUR COMMERCIAL COOPERATIVE BANK,KCCB0AND033,ANANDNAGAR,"106-108,SHIVALIK ARCADE,OPP PRAHLADNAGAR GARDEN,ANANDNAGAR ROAD,AHMEDABAD-380015",26931172,AHMEDABAD,AHMEDABAD,GUJARAT
KALUPUR COMMERCIAL COOPERATIVE BANK,KCCB0AKL045,ANKLESHWAR,"RAVI COMPLEX, WALIA CROSS ROAD, GIDC , ANKLESHWAR - 393002",224032,ANKLESHWAR,BHARUCH,GUJARAT
NATIONAL AUSTRALIA BANK LIMITED,NATA0000001,RTGS-HO,"NO. 901, 9TH FLOOR NARIMAN BHAVAN, 227 BACKBAY RECLAMATION,  NARIMAN POINT, MUMBAI",61988238,MUMBAI,MUMBAI,MAHARASHTRA
HIMACHAL PRADESH STATE COOPERATIVE BANK LTD,HPSC0000580,KAFOTA,VPO KAFOTA TEHSIL KAMRAU,,PAONTA SAHIB,SIRMOUR,HIMACHAL PRADESH
HIMACHAL PRADESH STATE COOPERATIVE BANK LTD,HPSC0000579,GATADHAR,PO SANGNA TEHSIL SANGRAH DISTT SIRMOUR 173023,8894067667,SANGRAH,SIRMOUR,HIMACHAL PRADESH
HIMACHAL PRADESH STATE COOPERATIVE BANK LTD,HPSC0000578,RONHAT,RONHAT TEHSIL SHILLAI,270404,SHILLAI,SIRMOUR,HIMACHAL PRADESH
HIMACHAL PRADESH STATE COOPERATIVE BANK LTD,HPSC0000577,NAINIDHAR,NAINIDHAR TEHSIL SHILLAI PIN,206010,SHILLAI,SIRMOUR,HIMACHAL PRADESH
HIMACHAL PRADESH STATE COOPERATIVE BANK LTD,HPSC0000576,JAMTA,JAMTA TEHSIL NAHAN PIN,258666,NAHAN,SIRMOUR,HIMACHAL PRADESH
HIMACHAL PRADESH STATE COOPERATIVE BANK LTD,HPSC0000575,KHERI,KHERI TEHSIL RAJGARH DISTT SIRMOUR,275021,RAJGARH,SIRMOUR,HIMACHAL PRADESH
HIMACHAL PRADESH STATE COOPERATIVE BANK LTD,HPSC0000573,YASHWANT NAGAR,YASHWANT NAGAR PIN 173212,270400,YASHWANT NAGAR,SIRMOUR,HIMACHAL PRADESH
HIMACHAL PRADESH STATE COOPERATIVE BANK LTD,HPSC0000572,DC OFFICE NAHAN,DC NAHAN PIN 173026,222267,NAHAN,SIRMOUR,HIMACHAL PRADESH
HIMACHAL PRADESH STATE COOPERATIVE BANK LTD,HPSC0000571,LANA CHETA,LANA CHETA PIN 173104,247120,LANA CHETA,SIRMOUR,HIMACHAL PRADESH
HIMACHAL PRADESH STATE COOPERATIVE BANK LTD,HPSC0000570,KAMRAU,KAMRAU PIN 173029,271443,KAMRAU,SIRMOUR,HIMACHAL PRADESH
HIMACHAL PRADESH STATE COOPERATIVE BANK LTD,HPSC0000569,TRILOKPUR,TRILOKPUR PIN 173030,238679,KALA AMB,SIRMOUR,HIMACHAL PRADESH
HIMACHAL PRADESH STATE COOPERATIVE BANK LTD,HPSC0000568,SHILLAI,SHILLAI PIN 173027,278545,SHILLAI,SIRMOUR,HIMACHAL PRADESH
HIMACHAL PRADESH STATE COOPERATIVE BANK LTD,HPSC0000567,SATAUN,SATAUN PIN 173029,262506,SATAUN,SIRMOUR,HIMACHAL PRADESH
HIMACHAL PRADESH STATE COOPERATIVE BANK LTD,HPSC0000566,SARAHAN-SIRMOUR,SARAHAN SIRMOUR. PIN 173024,236745,SRAHAN,SIRMOUR,HIMACHAL PRADESH
HIMACHAL PRADESH STATE COOPERATIVE BANK LTD,HPSC0000565,SANGRAH,SANGRAH PIN 173023,248163,SANGRAH,SIRMOUR,HIMACHAL PRADESH
HIMACHAL PRADESH STATE COOPERATIVE BANK LTD,HPSC0000564,S - PURUWALA,S PRURWALA PIN 173025,238838,PAONTA SAHIB,SIRMOUR,HIMACHAL PRADESH
HIMACHAL PRADESH STATE COOPERATIVE BANK LTD,HPSC0000563,RAJGARH,RAJGARH PIN 173101,221021,RAJGARH,SIRMOUR,HIMACHAL PRADESH
HIMACHAL PRADESH STATE COOPERATIVE BANK LTD,HPSC0000562,PAONTA SAHIB,PAONTA SAHIB PIN 173025,222336,PAONTA SAHIB,SIRMOUR,HIMACHAL PRADESH
HIMACHAL PRADESH STATE COOPERATIVE BANK LTD,HPSC0000561,NOHRADHAR,NOHRADHAR PIN 173104,240680,NOHRADHAR,SIRMOUR,HIMACHAL PRADESH
HIMACHAL PRADESH STATE COOPERATIVE BANK LTD,HPSC0000560,NARAG,NARAG PIN 173024,257335,NARAG,SIRMOUR,HIMACHAL PRADESH
HIMACHAL PRADESH STATE COOPERATIVE BANK LTD,HPSC0000559,NAHAN,NAHAN PIN 173001,222687,NAHAN,SIRMOUR,HIMACHAL PRADESH
HIMACHAL PRADESH STATE COOPERATIVE BANK LTD,HPSC0000558,MAJRA,MAJRA PIN 173021,254047,MAJRA,SIRMOUR,HIMACHAL PRADESH
HIMACHAL PRADESH STATE COOPERATIVE BANK LTD,HPSC0000557,KATCHA TANK,KATCHA TANK PIN 173001,223143,NAHAN,SIRMOUR,HIMACHAL PRADESH
HIMACHAL PRADESH STATE COOPERATIVE BANK LTD,HPSC0000556,KALA AMB,KALA AMB PIN 173020,254114,KAKA AMB,SIRMOUR,HIMACHAL PRADESH
HIMACHAL PRADESH STATE COOPERATIVE BANK LTD,HPSC0000555,HABBAN,HABBAN PIN 173101,266080,HABBAN,SIRMOUR,HIMACHAL PRADESH
HIMACHAL PRADESH STATE COOPERATIVE BANK LTD,HPSC0000553,DADAHU,DADAHU DISTT SIRMOUR PIN 173022,267353,DADAHU,SIRMOUR,HIMACHAL PRADESH
HIMACHAL PRADESH STATE COOPERATIVE BANK LTD,HPSC0000552,DHAULA KUAN,DHAULA KUAN PIN 173020,257619,DHAULA KUAN,SIRMOUR,HIMACHAL PRADESH
HIMACHAL PRADESH STATE COOPERATIVE BANK LTD,HPSC0000551,BADRINAGAR,BO BADARI NAGAR PIN 173026,224788,PAONTA SAHIB,SIRMOUR,HIMACHAL PRADESH
HIMACHAL PRADESH STATE COOPERATIVE BANK LTD,HPSC0000469,MASHOBRA,VILLAGE MASHOBRA-2 POST OFFICE MASHOBRA TEHSIL AND DISTRICT SHIMLA PIN 171007,2740555,SHIMLA,SHIMLA,HIMACHAL PRADESH
HIMACHAL PRADESH STATE COOPERATIVE BANK LTD,HPSC0000468,THACHI,GRAM PANCHAYAT AND PO THACHI TEHSIL SUNI,2793444,SHIMLA,SHIMLA,HIMACHAL PRADESH
HIMACHAL PRADESH STATE COOPERATIVE BANK LTD,HPSC0000467,JATHIA DEVI,VPO JATHIA DEVI TEHSIL SHIMLA,,SHIMLA,SHIMLA,HIMACHAL PRADESH
HIMACHAL PRADESH STATE COOPERATIVE BANK LTD,HPSC0000466,JALOG,VPO JALOG TEHSIL SUNNI,,SHIMLA,SHIMLA,HIMACHAL PRADESH
HIMACHAL PRADESH STATE COOPERATIVE BANK LTD,HPSC0000462,KUPVI,KUPVI TEHSIL KUPVI DISTT SHIMLA,270280,KUPVI,SHIMLA,HIMACHAL PRADESH
HIMACHAL PRADESH STATE COOPERATIVE BANK LTD,HPSC0000461,SUMMER HILL,SUMMER HILL DISTT SHIMLA 171005,2832500,SHIMLA,SHIMLA,HIMACHAL PRADESH
HIMACHAL PRADESH STATE COOPERATIVE BANK LTD,HPSC0000460,FAGU,FAGU TEHSIL THEOG DISTT SHIMLA,239207,THEOG,SHIMLA,HIMACHAL PRADESH
HIMACHAL PRADESH STATE COOPERATIVE BANK LTD,HPSC0000459,KHARAPATHAR,KHARA PATHAR TEHSIL JUBBAL PIN 171205,9418012762,JUBBAL,SHIMLA,HIMACHAL PRADESH
HIMACHAL PRADESH STATE COOPERATIVE BANK LTD,HPSC0000458,BACHHUNCH   CHAPOTI,BACHHUNCH CHAPOTI,244231,ROHRU,SHIMLA,HIMACHAL PRADESH
HIMACHAL PRADESH STATE COOPERATIVE BANK LTD,HPSC0000457,BATAR GALU,BATAR GALU PO KATHASU TEHSIL JUBBAL PIN-171206,8988125900,JUBBAL,SHIMLA,HIMACHAL PRADESH
HIMACHAL PRADESH STATE COOPERATIVE BANK LTD,HPSC0000456,KHARAHAN,KHARAHAN TEHSIL NANKHARI PIN 171213,9418211634,NANKHARI,SHIMLA,HIMACHAL PRADESH
HIMACHAL PRADESH STATE COOPERATIVE BANK LTD,HPSC0000455,KHOLI GHAT,KHOLIGHAT NANKHARI PIN 171213,268755,NANKHARI,SHIMLA,HIMACHAL PRADESH
HIMACHAL PRADESH STATE COOPERATIVE BANK LTD,HPSC0000454,MANDAL,MANDAL PIN 171216,239156,MANDAL,SHIMLA,HIMACHAL PRADESH
HIMACHAL PRADESH STATE COOPERATIVE BANK LTD,HPSC0000453,DEOLI,BO DEOLI PIN 171203,9418142342,DEOLI,SHIMLA,HIMACHAL PRADESH
HIMACHAL PRADESH STATE COOPERATIVE BANK LTD,HPSC0000451,KOTI,KOTI TEHSIL JUNGA PIN 171012,2733451,SHIMLA,SHIMLA,HIMACHAL PRADESH
HIMACHAL PRADESH STATE COOPERATIVE BANK LTD,HPSC0000450,SHILAROO,SHILAROO PIN 171213,9418095965,SHILAROO,SHIMLA,HIMACHAL PRADESH
HIMACHAL PRADESH STATE COOPERATIVE BANK LTD,HPSC0000449,DEORI KHANETI,DEORI KHANETI TEHSIL KOTKHAI PIN 171201,246707,KOTKHAI,SHIMLA,HIMACHAL PRADESH
HIMACHAL PRADESH STATE COOPERATIVE BANK LTD,HPSC0000448,SARASWATI NAGAR,SARASWATI NAGAR PIN 171206,238995,SARASWATI NAGAR,SHIMLA,HIMACHAL PRADESH
HIMACHAL PRADESH STATE COOPERATIVE BANK LTD,HPSC0000447,RATNARI,RATNARI TEHSIL KOTKHAI PIN 171225,275801,KOTKHAI,SHIMLA,HIMACHAL PRADESH
HIMACHAL PRADESH STATE COOPERATIVE BANK LTD,HPSC0000446,TOTU,BO TOTU SHIMLA PIN 171011,2837608,SHIMLA,SHIMLA,HIMACHAL PRADESH
HIMACHAL PRADESH STATE COOPERATIVE BANK LTD,HPSC0000445,TIKKAR,TIKKAR PIN 171203,233277,TIKKER,SHIMLA,HIMACHAL PRADESH
HIMACHAL PRADESH STATE COOPERATIVE BANK LTD,HPSC0000444,THEOG,THEOG PIN 171201,238207,THEOG,SHIMLA,HIMACHAL PRADESH
HIMACHAL PRADESH STATE COOPERATIVE BANK LTD,HPSC0000443,THANEDHAR,THANEDHAR TEHSIL KUMARSAIN PIN 172030,222350,KUMARSAIN,SHIMLA,HIMACHAL PRADESH
HIMACHAL PRADESH STATE COOPERATIVE BANK LTD,HPSC0000442,TAKLECH,BO TAKLECH TEHSIL RAMPUR PIN 172022,272206,RAMPUR,SHIMLA,HIMACHAL PRADESH
HIMACHAL PRADESH STATE COOPERATIVE BANK LTD,HPSC0000441,THE MALL SHIMLA,SHIMLA THE MALL SHIMLA 171001,,SHIMLA,SHIMLA,HIMACHAL PRADESH
HIMACHAL PRADESH STATE COOPERATIVE BANK LTD,HPSC0000440,THE MALL SHIMLA,SHIMLA THE MALL SHIMLA 171001,,SHIMLA,SHIMLA,HIMACHAL PRADESH
HIMACHAL PRADESH STATE COOPERATIVE BANK LTD,HPSC0000439,THE MALL SHIMLA,SHIMLA THE MALL SHIMLA 171001,,SHIMLA,SHIMLA,HIMACHAL PRADESH
HIMACHAL PRADESH STATE COOPERATIVE BANK LTD,HPSC0000438,THE MALL SHIMLA,SHIMLA THE MALL SHIMLA 171001,,SHIMLA,SHIMLA,HIMACHAL PRADESH
HIMACHAL PRADESH STATE COOPERATIVE BANK LTD,HPSC0000437,SHARONTHA,SHARONTHA TEHSIL TIKKAR PIN 171203,9418071898,SHRONTHA,SHIMLA,HIMACHAL PRADESH
HIMACHAL PRADESH STATE COOPERATIVE BANK LTD,HPSC0000435,H P SECRETARIAT,BO SECTT CHHOTA SHIMLA 171002,2620991,SHIMLA,SHIMLA,HIMACHAL PRADESH
HIMACHAL PRADESH STATE COOPERATIVE BANK LTD,HPSC0000434,SARAHAN-BSR,SARAHAN BSR TEHSIL RAMPUR PIN 172002,274261,RAMPUR,SHIMLA,HIMACHAL PRADESH
HIMACHAL PRADESH STATE COOPERATIVE BANK LTD,HPSC0000433,SANJAULI,SANJAULI SHIMLA PIN 171006,2841140,SHIMLA,SHIMLA,HIMACHAL PRADESH
HIMACHAL PRADESH STATE COOPERATIVE BANK LTD,HPSC0000432,ROHRU,ROHRU PIN 171207,240050,ROHRU,SHIMLA,HIMACHAL PRADESH
HIMACHAL PRADESH STATE COOPERATIVE BANK LTD,HPSC0000431,RAMPUR BUSHAHAR,RAMPUR MAIN BAZAR PIN 172001,233034,RAMPUR,SHIMLA,HIMACHAL PRADESH
HIMACHAL PRADESH STATE COOPERATIVE BANK LTD,HPSC0000430,PREMNAGAR,PREM NAGAR TEHSIL KUMARSAIN,244046,KUMARSAIN,SHIMLA,HIMACHAL PRADESH
HIMACHAL PRADESH STATE COOPERATIVE BANK LTD,HPSC0000429,PRAGATI NAGAR,PRAGATI NAGAR TEHSIL KOTKHAI PIN 171202,253304,KOTKHAI,SHIMLA,HIMACHAL PRADESH
HIMACHAL PRADESH STATE COOPERATIVE BANK LTD,HPSC0000428,NOGLI,NOGLI TEHSIL RAMPUR BUSHAHAR PIN 172022,271296,RAMPUR,SHIMLA,HIMACHAL PRADESH
HIMACHAL PRADESH STATE COOPERATIVE BANK LTD,HPSC0000427,NERWA,NERWA TEHSIL CHOPAL PIN 171210,264427,CHOPAL,SHIMLA,HIMACHAL PRADESH
HIMACHAL PRADESH STATE COOPERATIVE BANK LTD,HPSC0000426,NARKANDA,"NARKANDA, TEHSIL KUMARSAIN PIN-171213",242433,KUMARSAIN,SHIMLA,HIMACHAL PRADESH
HIMACHAL PRADESH STATE COOPERATIVE BANK LTD,HPSC0000425,NANKHARI,NANKHARI TEHSIL NANKHARI PIN 172021,225444,NANKHARI,SHIMLA,HIMACHAL PRADESH
HIMACHAL PRADESH STATE COOPERATIVE BANK LTD,HPSC0000424,MARAOG,MARAOG TEHSIL CHOPAL PIN 171211,261304,CHOPAL,SHIMLA,HIMACHAL PRADESH
HIMACHAL PRADESH STATE COOPERATIVE BANK LTD,HPSC0000423,KUMARSAIN,BO AND TEHSIL KUMARSAIN PIN 172029,240004,KUMARSAIN,SHIMLA,HIMACHAL PRADESH
HIMACHAL PRADESH STATE COOPERATIVE BANK LTD,HPSC0000422,KOTKHAI,KOTKHAI TEHSIL KOTKHAI DISTT SHIMLA PIN 171202,255313,KOTKHAI,SHIMLA,HIMACHAL PRADESH
HIMACHAL PRADESH STATE COOPERATIVE BANK LTD,HPSC0000421,KIARI,KIARI TEHSIL KOTKHAI PIN 171204,258213,KOTKHAI,SHIMLA,HIMACHAL PRADESH
HIMACHAL PRADESH STATE COOPERATIVE BANK LTD,HPSC0000420,KHANETI SANDOCH,KHANETI SADOCH PO BATARI TEHSIL KUMARSAIN PIN 172031,228123,KUMARSAIN,SHIMLA,HIMACHAL PRADESH
HIMACHAL PRADESH STATE COOPERATIVE BANK LTD,HPSC0000419,KHALTU NALA,KHALTUNALA TEHSIL KOTKHAI PIN 171202,244530,KOTKHAI,SHIMLA,HIMACHAL PRADESH
HIMACHAL PRADESH STATE COOPERATIVE BANK LTD,HPSC0000418,KHALINI,KHALINI SHIMLA PIN 171002,2623676,SHIMLA,SHIMLA,HIMACHAL PRADESH
HIMACHAL PRADESH STATE COOPERATIVE BANK LTD,HPSC0000417,KASUMPATI,KASUMPATI SHIMLA 9,2624818,SHIMLA,SHIMLA,HIMACHAL PRADESH
HIMACHAL PRADESH STATE COOPERATIVE BANK LTD,HPSC0000416,JUBBAL,JUBBAL TEHSIL JUBBAL DISTT SHIMLA PIN 171205,252047,JUBBAL,SHIMLA,HIMACHAL PRADESH
HIMACHAL PRADESH STATE COOPERATIVE BANK LTD,HPSC0000415,JIKHNIPUL,JHIKNIPUL TEHSIL CHOPAL PIN 171211,266530,CHOPAL,SHIMLA,HIMACHAL PRADESH
HIMACHAL PRADESH STATE COOPERATIVE BANK LTD,HPSC0000414,JHAKRI,"JHAKRI, TEHSIL RAMPUR PIN-172201",275581,RAMPUR,SHIMLA,HIMACHAL PRADESH
HIMACHAL PRADESH STATE COOPERATIVE BANK LTD,HPSC0000413,JEORI,JEORI TEHSIL RAMPUR PIN 172101,278460,RAMPUR,SHIMLA,HIMACHAL PRADESH
HIMACHAL PRADESH STATE COOPERATIVE BANK LTD,HPSC0000412,JANGLA,JANGLA TEHSIL ROHRU PIN 171214,275801,ROHRU,SHIMLA,HIMACHAL PRADESH
HIMACHAL PRADESH STATE COOPERATIVE BANK LTD,HPSC0000411,GHANAHATTI,GANAHATTI PIN 171011,2774678,SHIMLA,SHIMLA,HIMACHAL PRADESH
HIMACHAL PRADESH STATE COOPERATIVE BANK LTD,HPSC0000410,DODRA,DODRA KWAR PIN 171221,262070,CHIRGAON,SHIMLA,HIMACHAL PRADESH
HIMACHAL PRADESH STATE COOPERATIVE BANK LTD,HPSC0000409,DHALLI,DHALLI DISTT SHIMLA PIN 171012,2841099,SHIMLA,SHIMLA,HIMACHAL PRADESH
HIMACHAL PRADESH STATE COOPERATIVE BANK LTD,HPSC0000408,DEHA,BO DEHA PIN 171201,231711,DEHA,SHIMLA,HIMACHAL PRADESH
HIMACHAL PRADESH STATE COOPERATIVE BANK LTD,HPSC0000407,DALAN,DALAN PO VIRGARH TEHSIL KUMARSAIN PIN 172030,222909,KUMARSAIN,SHIMLA,HIMACHAL PRADESH
HIMACHAL PRADESH STATE COOPERATIVE BANK LTD,HPSC0000406,CHHOTA SHIMLA,CHHOTA SHIMLA-2,2621886,SHIMLA,SHIMLA,HIMACHAL PRADESH
HIMACHAL PRADESH STATE COOPERATIVE BANK LTD,HPSC0000405,CHOPAL,CHOPAL,260025,CHOPAL,SHIMLA,HIMACHAL PRADESH
HIMACHAL PRADESH STATE COOPERATIVE BANK LTD,HPSC0000404,CHIRGAON,CHIRGAON PIN,277258,CHIRGAON,SHIMLA,HIMACHAL PRADESH
HIMACHAL PRADESH STATE COOPERATIVE BANK LTD,HPSC0000403,CHAMAIN,CHAMAIN TEHSIL KOTKHAI,240561,KOTKHAI,SHIMLA,HIMACHAL PRADESH
HIMACHAL PRADESH STATE COOPERATIVE BANK LTD,HPSC0000402,ISBT SHIMLA,BO ISBT SHIMLA PIN 171001,2812945,SHIMLA,SHIMLA,HIMACHAL PRADESH
HIMACHAL PRADESH STATE COOPERATIVE BANK LTD,HPSC0000401,BHARANU,BHARANU TEHSIL CHOPAL,269521,CHOPAL,SHIMLA,HIMACHAL PRADESH
HIMACHAL PRADESH STATE COOPERATIVE BANK LTD,HPSC0000358,RAKHOH,VPO RAKHOH TEHSIL SARKAGHAT,,MANDI,MANDI,HIMACHAL PRADESH
HIMACHAL PRADESH STATE COOPERATIVE BANK LTD,HPSC0000357,KHADDAR,VPO KHADDAR TEHSIL LADBHAROL,,MANDI,MANDI,HIMACHAL PRADESH
HIMACHAL PRADESH STATE COOPERATIVE BANK LTD,HPSC0000356,CHAKKAR,VILL CHAKKAR PO GUTKAR TEHSIL BALH,,MANDI,MANDI,HIMACHAL PRADESH
HIMACHAL PRADESH STATE COOPERATIVE BANK LTD,HPSC0000352,TAKOLI,TAKOLI PIN 175025,287213,TAKOLI,MANDI,HIMACHAL PRADESH
HIMACHAL PRADESH STATE COOPERATIVE BANK LTD,HPSC0000351,RAJGARH   MND,RAJGARH PIN 175027,244006,RAJGARH,MANDI,HIMACHAL PRADESH
HIMACHAL PRADESH STATE COOPERATIVE BANK LTD,HPSC0000349,BAGA CHANOGI,BAGA CHANOGI TEHSIL THUNAG VIA BAGSAID PIN 175035,217050,THUNAG,MANDI,HIMACHAL PRADESH
HIMACHAL PRADESH STATE COOPERATIVE BANK LTD,HPSC0000347,PADDAR,VPO PADDAR TEH PADDAR MANDI 175012,260670,PADDAR,MANDI,HIMACHAL PRADESH
HIMACHAL PRADESH STATE COOPERATIVE BANK LTD,HPSC0000345,AWAH DEVI,SARAUN (AWHA DEVI) PIN 175024,275157,SARAUN,MANDI,HIMACHAL PRADESH
HIMACHAL PRADESH STATE COOPERATIVE BANK LTD,HPSC0000343,CHANDESH,CHANDESH PO GAHAR TEHSIL SARKAGHAT PIN 175049,257681,SARKAGHAT,MANDI,HIMACHAL PRADESH
HIMACHAL PRADESH STATE COOPERATIVE BANK LTD,HPSC0000342,DHANOTU,DHANOTU TEHSIL SUNDER NAGAR PIN-174401,265066,SUNDERNAGAR,MANDI,HIMACHAL PRADESH
HIMACHAL PRADESH STATE COOPERATIVE BANK LTD,HPSC0000341,KUNNU,KUNNU TEHSIL PADHAR PIN 176121,260640,PADHAR,MANDI,HIMACHAL PRADESH
HIMACHAL PRADESH STATE COOPERATIVE BANK LTD,HPSC0000340,BS JOGINDER NAGAR,JOGINDER NAGAR BUS STAND PIN 17,224307,JOGINDER NAGAR,MANDI,HIMACHAL PRADESH
HIMACHAL PRADESH STATE COOPERATIVE BANK LTD,HPSC0000339,NABAHI DEVI,VPO NABAHI DEVI TEH SARKAGHAT MANDI 175024,230174,SARKAGHAT,MANDI,HIMACHAL PRADESH
HIMACHAL PRADESH STATE COOPERATIVE BANK LTD,HPSC0000338,SMAILA,"SMAILA, TEHSIL SARAGHAT PIN-175034",256310,SARKAGHAT,MANDI,HIMACHAL PRADESH
HIMACHAL PRADESH STATE COOPERATIVE BANK LTD,HPSC0000336,SAJAO PIPLU,SAJAO PIPLU TEHSIL SARKAGHAT PIN 175025,251766,SARKAGHAT,MANDI,HIMACHAL PRADESH
HIMACHAL PRADESH STATE COOPERATIVE BANK LTD,HPSC0000335,CHAIL CHOWK,CHAIL CHOWK TEHSIL CHACHIOT PIN 175045,251048,CHAIL CHOWK,MANDI,HIMACHAL PRADESH
HIMACHAL PRADESH STATE COOPERATIVE BANK LTD,HPSC0000334,LONGANI,LONGNI TEHSIL SARKAGHAT DISTT. MANDI PIN-175025,279055,LONGNI,MANDI,HIMACHAL PRADESH
HIMACHAL PRADESH STATE COOPERATIVE BANK LTD,HPSC0000333,MARHI,MARHI TEHSIL SARKAGHAT PIN 175050,270100,SARKAGHAT,MANDI,HIMACHAL PRADESH
HIMACHAL PRADESH STATE COOPERATIVE BANK LTD,HPSC0000332,TIHRA,TIHRA TEHSIL SARKAGHAT PIN 175026,278401,SARKAGHAT,MANDI,HIMACHAL PRADESH
HIMACHAL PRADESH STATE COOPERATIVE BANK LTD,HPSC0000331,BHADARWAR,BALDWARA TEHSIL SARKAGHAT PIN 175033,271311,SARKAGHAT,MANDI,HIMACHAL PRADESH
HIMACHAL PRADESH STATE COOPERATIVE BANK LTD,HPSC0000330,BSL SUNDERNAGAR,BSL COLONY SNR PURANA BAZAR TEHSIL SUNDER NAGAR,264154,SUNDERNAGAR,MANDI,HIMACHAL PRADESH
HIMACHAL PRADESH STATE COOPERATIVE BANK LTD,HPSC0000329,CHATROKHARI,"CHATROKHRI, TEHSIL SUNDER NAGAR PIN-174402",266309,SUNDERNAGAR,MANDI,HIMACHAL PRADESH
HIMACHAL PRADESH STATE COOPERATIVE BANK LTD,HPSC0000328,SAULIKHAD,SAULIKAHD PIN 175001,237659,MANDI,MANDI,HIMACHAL PRADESH
HIMACHAL PRADESH STATE COOPERATIVE BANK LTD,HPSC0000327,BHAMBLA,BHAMBLA TEHSIL SARKAGHAT PIN 175004,256454,SARKAGHAT,MANDI,HIMACHAL PRADESH
HIMACHAL PRADESH STATE COOPERATIVE BANK LTD,HPSC0000326,THUNAG,THUNAG PO & TEHSIL THUNAG PIN 175048,257514,THUNAG,MANDI,HIMACHAL PRADESH
HIMACHAL PRADESH STATE COOPERATIVE BANK LTD,HPSC0000325,SUNDER NAGAR,SUNDER NAGAR PIN 175019,262337,SUNDERNAGAR,MANDI,HIMACHAL PRADESH
HIMACHAL PRADESH STATE COOPERATIVE BANK LTD,HPSC0000324,SERI BANGLOW,SERI BUNLOW TEHSIL KARSOG MANDI PIN-175011,226505,KARSOG,MANDI,HIMACHAL PRADESH
HIMACHAL PRADESH STATE COOPERATIVE BANK LTD,HPSC0000323,SARKAGHAT,SARKAGHAT,230057,SARKAGHAT,MANDI,HIMACHAL PRADESH
HIMACHAL PRADESH STATE COOPERATIVE BANK LTD,HPSC0000322,SANDHOLE,SANDHOLE PIN 176090,273228,SANDHOLE,MANDI,HIMACHAL PRADESH
HIMACHAL PRADESH STATE COOPERATIVE BANK LTD,HPSC0000321,REWALSAR,REWALSAR PIN 175023,240211,REWALSAR,MANDI,HIMACHAL PRADESH
HIMACHAL PRADESH STATE COOPERATIVE BANK LTD,HPSC0000320,PANDOH,PANDOH PIN 175124,282207,PANDOH,MANDI,HIMACHAL PRADESH
HIMACHAL PRADESH STATE COOPERATIVE BANK LTD,HPSC0000319,NER CHOWK,NERCHOWK TEHSIL SADAR PIN 175008,242358,NER CHOWK,MANDI,HIMACHAL PRADESH
HIMACHAL PRADESH STATE COOPERATIVE BANK LTD,HPSC0000318,NAGWAIN,NAGWAIN PIN 175121,287113,NAGWAIN,MANDI,HIMACHAL PRADESH
HIMACHAL PRADESH STATE COOPERATIVE BANK LTD,HPSC0000317,MANDI,CHOTA BAZAR MANDI PIN 175001,223035,MANDI,MANDI,HIMACHAL PRADESH
HIMACHAL PRADESH STATE COOPERATIVE BANK LTD,HPSC0000316,MAKARIRI,MAKRIRI MANDI,256104,MAKRIRI,MANDI,HIMACHAL PRADESH
HIMACHAL PRADESH STATE COOPERATIVE BANK LTD,HPSC0000315,LADBADHOL,LAD BHROL PIN 176126,278143,LADBHAROL,MANDI,HIMACHAL PRADESH
HIMACHAL PRADESH STATE COOPERATIVE BANK LTD,HPSC0000314,KOTLI,KOTLI PIN 175003,281219,KOTLI,MANDI,HIMACHAL PRADESH
HIMACHAL PRADESH STATE COOPERATIVE BANK LTD,HPSC0000313,KARSOG,KARSOG MANDI PIN 175011,222248,KARSOG,MANDI,HIMACHAL PRADESH
HIMACHAL PRADESH STATE COOPERATIVE BANK LTD,HPSC0000312,JOGINDER NAGAR,JOGINDER NAGAR PIN 175015,222029,JOGINDER NAGAR,MANDI,HIMACHAL PRADESH
HIMACHAL PRADESH STATE COOPERATIVE BANK LTD,HPSC0000311,JANJEHLI,JANJEHLI MANDI PIN- 175047,256748,JANJEHLI,MANDI,HIMACHAL PRADESH
HIMACHAL PRADESH STATE COOPERATIVE BANK LTD,HPSC0000310,GOHAR,GOHAR TEHSIL CHACHYOT PIN 175029,250270,GOHAR,MANDI,HIMACHAL PRADESH
HIMACHAL PRADESH STATE COOPERATIVE BANK LTD,HPSC0000309,DHARMARPUR,DHARAMPUR TEHSIL SARKAGHAT PIN 175040,272005,DHARMPUR,MANDI,HIMACHAL PRADESH
HIMACHAL PRADESH STATE COOPERATIVE BANK LTD,HPSC0000308,DEHAR,DEHAR TEHSIL SUNDER NAGAR PIN 175030,283004,DEHAR,MANDI,HIMACHAL PRADESH
HIMACHAL PRADESH STATE COOPERATIVE BANK LTD,HPSC0000307,CHURAG,CHURAG TEHSIL KARSOG PIN,224036,KARSOG,MANDI,HIMACHAL PRADESH
HIMACHAL PRADESH STATE COOPERATIVE BANK LTD,HPSC0000306,CHHATRI,CHHATRI MANDI PIN 175047,243201,CHHATRI,MANDI,HIMACHAL PRADESH
HIMACHAL PRADESH STATE COOPERATIVE BANK LTD,HPSC0000305,CHAUNTRA,CHAUNTRA PIN 175032,252227,CHAUNTRA,MANDI,HIMACHAL PRADESH
HIMACHAL PRADESH STATE COOPERATIVE BANK LTD,HPSC0000304,BAROT,BAROT MANDI,267241,BAROT,MANDI,HIMACHAL PRADESH
HIMACHAL PRADESH STATE COOPERATIVE BANK LTD,HPSC0000303,BALI CHOWKI,BALICHOWKI TEHSIL BALICHOWKI PIN 175106,229145,BALI CHOWKI,MANDI,HIMACHAL PRADESH
HIMACHAL PRADESH STATE COOPERATIVE BANK LTD,HPSC0000302,BALDWARA,BALDWARA TEHSIL SARKAGHAT PIN 175033,258052,SARKAGHAT,MANDI,HIMACHAL PRADESH
HIMACHAL PRADESH STATE COOPERATIVE BANK LTD,HPSC0000267,LEO,VILLAGE AND PO LEO SUB TEHSIL YANGTHANG,,KINNAUR,KINNAUR,HIMACHAL PRADESH
HIMACHAL PRADESH STATE COOPERATIVE BANK LTD,HPSC0000266,SPILLOW,SPILLOW DISTT KINNAUR,9816012458,SPILLOW,KINNAUR,HIMACHAL PRADESH
HIMACHAL PRADESH STATE COOPERATIVE BANK LTD,HPSC0000264,GIABONG,GIABONG PIN 172110,9418761189,GIABONG,KINNAUR,HIMACHAL PRADESH
HIMACHAL PRADESH STATE COOPERATIVE BANK LTD,HPSC0000262,AKPA,"AKPA, TEHSIL MOORANG PIN-172116",225564,MOORANG,KINNAUR,HIMACHAL PRADESH
HIMACHAL PRADESH STATE COOPERATIVE BANK LTD,HPSC0000261,TAPRI,TAPRI KINNAUR,261207,TAPRI,KINNAUR,HIMACHAL PRADESH
HIMACHAL PRADESH STATE COOPERATIVE BANK LTD,HPSC0000260,SANGLA,SANGLA PIN 172106,242202,SANGLA,KINNAUR,HIMACHAL PRADESH
HIMACHAL PRADESH STATE COOPERATIVE BANK LTD,HPSC0000259,POWARI,POWARI SHANTHONG TEHSIL KALPA PIN 172107,223523,KALPA,KINNAUR,HIMACHAL PRADESH
HIMACHAL PRADESH STATE COOPERATIVE BANK LTD,HPSC0000258,POOH,POOH PIN 172111,232297,POOH,KINNAUR,HIMACHAL PRADESH
HIMACHAL PRADESH STATE COOPERATIVE BANK LTD,HPSC0000257,REKONG PEO,RECKONG PEO TEHSIL KALPA PIN 172107,222485,REKONG PEO,KINNAUR,HIMACHAL PRADESH
HIMACHAL PRADESH STATE COOPERATIVE BANK LTD,HPSC0000256,PANGI,PANGI PIN 172107,228811,PANGI,KINNAUR,HIMACHAL PRADESH
HIMACHAL PRADESH STATE COOPERATIVE BANK LTD,HPSC0000255,NICHAR,NICHAR KINNAUR,204549,NICHAR,KINNAUR,HIMACHAL PRADESH
HIMACHAL PRADESH STATE COOPERATIVE BANK LTD,HPSC0000254,MOORANG,MOORENG PIN 172109,252739,MOORANG,KINNAUR,HIMACHAL PRADESH
HIMACHAL PRADESH STATE COOPERATIVE BANK LTD,HPSC0000253,KATGAON,KATGAON PIN 172118,262295,KATGAON,KINNAUR,HIMACHAL PRADESH
HIMACHAL PRADESH STATE COOPERATIVE BANK LTD,HPSC0000252,KALPA,KALPA PIN-172108,226004,KALPA,KINNAUR,HIMACHAL PRADESH
HIMACHAL PRADESH STATE COOPERATIVE BANK LTD,HPSC0000251,BHABA NAGAR,BHABA NAGAR TEHSIL NICHAR PIN 172115,253330,BHABA NAGAR,KINNAUR,HIMACHAL PRADESH
HIMACHAL PRADESH STATE COOPERATIVE BANK LTD,HPSC0000202,SUNDLA,VPO SUNDLA TEHSIL SALOONI,242007,CHAMBA,CHAMBA,HIMACHAL PRADESH
HIMACHAL PRADESH STATE COOPERATIVE BANK LTD,HPSC0000201,DHARWALA,VPO DHARWALA TEHSIL CHAMBA,,CHAMBA,CHAMBA,HIMACHAL PRADESH
HIMACHAL PRADESH STATE COOPERATIVE BANK LTD,HPSC0000200,KARIAN,VILL KARIAN PO BHARIAN KOTHI TEHSIL CHAMBA,,CHAMBA,CHAMBA,HIMACHAL PRADESH
HIMACHAL PRADESH STATE COOPERATIVE BANK LTD,HPSC0000199,SAHO,VPO SAHO TEHSIL CHAMBA,,CHAMBA,CHAMBA,HIMACHAL PRADESH
HIMACHAL PRADESH STATE COOPERATIVE BANK LTD,HPSC0000198,RAJNAGAR,RAJNAGAR DISTT CHAMBA,9418759447,RAJNAGAR,CHAMBA,HIMACHAL PRADESH
HIMACHAL PRADESH STATE COOPERATIVE BANK LTD,HPSC0000197,SAROL,VPO SAROL TEHSIL CHAMBA,226235,CHAMBA,CHAMBA,HIMACHAL PRADESH
HIMACHAL PRADESH STATE COOPERATIVE BANK LTD,HPSC0000195,BATHARI,BATHARI DISTT CHAMBA,9418397348,BATHARI,CHAMBA,HIMACHAL PRADESH
HIMACHAL PRADESH STATE COOPERATIVE BANK LTD,HPSC0000193,TUNDI,TUNDI TEHSIL SIHUNTA PIN 176207,200524,SIHUNTA,CHAMBA,HIMACHAL PRADESH
HIMACHAL PRADESH STATE COOPERATIVE BANK LTD,HPSC0000192,TISSA,TISSA TEHSIL CHURAH PIN 176316,227041,TISSA,CHAMBA,HIMACHAL PRADESH
HIMACHAL PRADESH STATE COOPERATIVE BANK LTD,HPSC0000191,SURGANI,SURANGANI TEHSIL SALOONI PIN 176317,232007,SURGANI,CHAMBA,HIMACHAL PRADESH
HIMACHAL PRADESH STATE COOPERATIVE BANK LTD,HPSC0000190,SIHUNTA,SIHUNTHA PIN,265424,SIHUNTA,CHAMBA,HIMACHAL PRADESH
HIMACHAL PRADESH STATE COOPERATIVE BANK LTD,HPSC0000189,SALOONI,SALOONI PIN 176320,233237,SALOONI,CHAMBA,HIMACHAL PRADESH
HIMACHAL PRADESH STATE COOPERATIVE BANK LTD,HPSC0000188,NAINI KHAD,NAINI KHAD PIN,257645,NAINI KHAD,CHAMBA,HIMACHAL PRADESH
HIMACHAL PRADESH STATE COOPERATIVE BANK LTD,HPSC0000187,KAKIRA,KAKIRA TEHSIL BHATTIYAT PIN 176313,257245,KAKIRA,CHAMBA,HIMACHAL PRADESH
HIMACHAL PRADESH STATE COOPERATIVE BANK LTD,HPSC0000186,HOLI,HOLI PIN 176309,232315,HOLI,CHAMBA,HIMACHAL PRADESH
HIMACHAL PRADESH STATE COOPERATIVE BANK LTD,HPSC0000185,HATLI,HATLI PO DARMAN TEHSIL SIHUNTHA PIN 176223,238076,SIHUNTA,CHAMBA,HIMACHAL PRADESH
HIMACHAL PRADESH STATE COOPERATIVE BANK LTD,HPSC0000184,GAROLA,GAROLA TEHSIL BHARMAUR PIN 176309,224007,GAROLA,CHAMBA,HIMACHAL PRADESH
HIMACHAL PRADESH STATE COOPERATIVE BANK LTD,HPSC0000183,DHULARA,DHULARA PIN 176027,200495,DHULARA,CHAMBA,HIMACHAL PRADESH
HIMACHAL PRADESH STATE COOPERATIVE BANK LTD,HPSC0000182,DALHOUSIE,DALHOUSIE PIN 176304,240241,DALHOUSIE,CHAMBA,HIMACHAL PRADESH
HIMACHAL PRADESH STATE COOPERATIVE BANK LTD,HPSC0000180,CHOWARI,CHOWARI TEHSIL BHATTIYAT PIN 176302,266332,CHOWARI,CHAMBA,HIMACHAL PRADESH
HIMACHAL PRADESH STATE COOPERATIVE BANK LTD,HPSC0000179,CHAMBA,CHAMBA PIN 176310,222249,CHAMBA,CHAMBA,HIMACHAL PRADESH
HIMACHAL PRADESH STATE COOPERATIVE BANK LTD,HPSC0000178,BHARMOUR,BHARMAUR CHAMBA PIN-176015,225054,BHARMOUR,CHAMBA,HIMACHAL PRADESH
HIMACHAL PRADESH STATE COOPERATIVE BANK LTD,HPSC0000177,BHANJRARU,BHANJRARU TEHSIL CHAMBA PIN 176316,227071,BHANJRARU,CHAMBA,HIMACHAL PRADESH
HIMACHAL PRADESH STATE COOPERATIVE BANK LTD,HPSC0000176,BANIKHET,BANIKHET PIN 176303,254051,BANIKHET,CHAMBA,HIMACHAL PRADESH
HIMACHAL PRADESH STATE COOPERATIVE BANK LTD,HPSC0000135,BHAGER,VILLAGE AND PO BHAGER TEHSIL GHUMARWIN,,GHUMARWIN,BILASPUR,HIMACHAL PRADESH
HIMACHAL PRADESH STATE COOPERATIVE BANK LTD,HPSC0000134,KAULAN WALA TOBA,VPO KAULAN WALA TOBA TEHSIL SHRI NAINA DEVI JI,,BILASPUR,BILASPUR,HIMACHAL PRADESH
HIMACHAL PRADESH STATE COOPERATIVE BANK LTD,HPSC0000133,HARLOG,VPO HARLOG TEHSIL GHUMARWIN,,BILASPUR,BILASPUR,HIMACHAL PRADESH
HIMACHAL PRADESH STATE COOPERATIVE BANK LTD,HPSC0000132,CHANDPUR,VPO CHANDPUR TEHSIL SADAR,,BILASPUR,BILASPUR,HIMACHAL PRADESH
HIMACHAL PRADESH STATE COOPERATIVE BANK LTD,HPSC0000130,GOLTHAI,GOLTHAI TEHSIL SRI NAINA DEVI JI,239522,SRI NAINA DEVI JI,BILASPUR,HIMACHAL PRADESH
HIMACHAL PRADESH STATE COOPERATIVE BANK LTD,HPSC0000129,HATWAR,HATWAR TEHSIL GHUMARWIN,252243,HATWAR,BILASPUR,HIMACHAL PRADESH
HIMACHAL PRADESH STATE COOPERATIVE BANK LTD,HPSC0000128,MALOKHAR,MALOKHAR PO CHHAKHOH TEHSIL NAMHOL PIN 174001,249183,NAMHOL,BILASPUR,HIMACHAL PRADESH
HIMACHAL PRADESH STATE COOPERATIVE BANK LTD,HPSC0000127,BUM,"BUM, PO- PANTEHRA, TEHSIL GHUMARWIN PIN-174028",250067,BUM,BILASPUR,HIMACHAL PRADESH
HIMACHAL PRADESH STATE COOPERATIVE BANK LTD,HPSC0000126,JEJHWIN,JEJWIN TEHSIL JHANDUTTA PIN 174017,268041,JEJWIN,BILASPUR,HIMACHAL PRADESH
HIMACHAL PRADESH STATE COOPERATIVE BANK LTD,HPSC0000125,JUKHALA,JUKHALA PIN-174033,286253,JUKHALA,BILASPUR,HIMACHAL PRADESH
HIMACHAL PRADESH STATE COOPERATIVE BANK LTD,HPSC0000124,TRIFALGHAT,"TRIFAL GHAT, PO-HAWAN PIN-174003",256195,TRIFALGHAT,BILASPUR,HIMACHAL PRADESH
HIMACHAL PRADESH STATE COOPERATIVE BANK LTD,HPSC0000123,GUGA MOHRA,"GUGA MOHRA, PO- KAPAHORA TEHSIL GHUMARWIN PIN-174029",260474,GUGA MOHRA,BILASPUR,HIMACHAL PRADESH
HIMACHAL PRADESH STATE COOPERATIVE BANK LTD,HPSC0000120,HARNORA,HARNORA TEHSIL SADAR PIN,283141,HARNORA,BILASPUR,HIMACHAL PRADESH
HIMACHAL PRADESH STATE COOPERATIVE BANK LTD,HPSC0000119,KANDRAUR,"KANDRAUR, TEHSIL SADAR PIN-174004",242080,KANDRAUR,BILASPUR,HIMACHAL PRADESH
HIMACHAL PRADESH STATE COOPERATIVE BANK LTD,HPSC0000118,SWARGHAT,SWARGHAT TEHSIL SRI NAINA DEVI JI PIN-174011,284148,SWARGHAT,BILASPUR,HIMACHAL PRADESH
HIMACHAL PRADESH STATE COOPERATIVE BANK LTD,HPSC0000117,SHAH TALAI,SHAHTALAI TEHSIL JHANDUTA DISTT BILASPUR,264077,JHANDUTA,BILASPUR,HIMACHAL PRADESH
HIMACHAL PRADESH STATE COOPERATIVE BANK LTD,HPSC0000116,NAMHOL,"NAMHOL, PIN-",240056,NAMHOL,BILASPUR,HIMACHAL PRADESH
HIMACHAL PRADESH STATE COOPERATIVE BANK LTD,HPSC0000115,NAINA DEVI,SRI NAINA DEVI JI PIN-174310,288097,NAINA DEVI,BILASPUR,HIMACHAL PRADESH
HIMACHAL PRADESH STATE COOPERATIVE BANK LTD,HPSC0000114,LAKHANPUR,LAKHANPUR PIN-174001,222697,BILASPUR,BILASPUR,HIMACHAL PRADESH
HIMACHAL PRADESH STATE COOPERATIVE BANK LTD,HPSC0000113,KUTHERA,KUTHERA TEHSIL GHUMARWIN,275080,KUTHERA,BILASPUR,HIMACHAL PRADESH
HIMACHAL PRADESH STATE COOPERATIVE BANK LTD,HPSC0000112,KALLARI,"KALLARI, PO- NASWAL, TEHSIL GHUMARWIN PIN-174021",254043,KALLARI,BILASPUR,HIMACHAL PRADESH
HIMACHAL PRADESH STATE COOPERATIVE BANK LTD,HPSC0000111,JHANDUTTA,JHANDUTTA PIN 174031,272043,JHANDUTA,BILASPUR,HIMACHAL PRADESH
HIMACHAL PRADESH STATE COOPERATIVE BANK LTD,HPSC0000110,GHUMARWIN,GHUMARWIN PIN 174021,255243,GHUMARWIN,BILASPUR,HIMACHAL PRADESH
HIMACHAL PRADESH STATE COOPERATIVE BANK LTD,HPSC0000109,GEHRWIN,GEHRWIN PIN 174034,270203,GEHRWIN,BILASPUR,HIMACHAL PRADESH
HIMACHAL PRADESH STATE COOPERATIVE BANK LTD,HPSC0000108,DANGAR,DANGAR TEHSIL GHUMARWIN PIN-174023,278181,DANGAR,BILASPUR,HIMACHAL PRADESH
HIMACHAL PRADESH STATE COOPERATIVE BANK LTD,HPSC0000107,DADHOL,DADHOL TEHSIL GHUMARWIN PIN 174023,278031,DADHOL,BILASPUR,HIMACHAL PRADESH
HIMACHAL PRADESH STATE COOPERATIVE BANK LTD,HPSC0000106,BILASPUR,BILASPUR MAIN MARKET PIN-174001,222542,BILASPUR,BILASPUR,HIMACHAL PRADESH
HIMACHAL PRADESH STATE COOPERATIVE BANK LTD,HPSC0000105,BHARARI,"BHARARI, PO- LEHRI SAREL TEHSIL GHUMARWIN PIN-174027",273039,BHARARI,BILASPUR,HIMACHAL PRADESH
HIMACHAL PRADESH STATE COOPERATIVE BANK LTD,HPSC0000104,BERTHIN,BERTHIN TEHSIL JHANDUTTA PIN 174029,266041,BERTHIN,BILASPUR,HIMACHAL PRADESH
HIMACHAL PRADESH STATE COOPERATIVE BANK LTD,HPSC0000103,BERI,BERI PIN 174001,244522,BERI,BILASPUR,HIMACHAL PRADESH
HIMACHAL PRADESH STATE COOPERATIVE BANK LTD,HPSC0000102,BASSI,BASSI KEHLOOR TEHSIL SRI NAINA DEVI JI PIN 174002,214552,BASSI,BILASPUR,HIMACHAL PRADESH
HIMACHAL PRADESH STATE COOPERATIVE BANK LTD,HPSC0000101,BARMANA,BARMANA TEHSIL SADAR PIN 174013,245036,BARMANA,BILASPUR,HIMACHAL PRADESH
HIMACHAL PRADESH STATE COOPERATIVE BANK LTD,HPSC0000051,NEW SUBZI MANDI DELHI,NEW SUBZI MANDI AZADPUR DELHI,27681808,DELHI,DELHI,HIMACHAL PRADESH
SYNDICATE BANK,SYNB0009958,CHETLAT,SUBTREASURY BUILDINGNEAR BOAT JETTYCHETLATH ISLANDU.T.OF LAKSHADWEEPPIN 682 554,,CHETLAT,LAKSHADWEEP,LAKSHADWEEP
SYNDICATE BANK,SYNB0009957,KADAMAT,DOOR C 5 175 KADAMATH ISLANDU.T.OF LAKSHADWEEPVIA HPO KOCHIPIN 682 556,,KADAMAT,LAKSHADWEEP,LAKSHADWEEP
SYNDICATE BANK,SYNB0009956,KILTAN,"GOVT.TREASURY BUILDINGKILTAN, VIA P O KOCHIPIN 682 558",,KILTAN,LAKSHADWEEP,LAKSHADWEEP
SYNDICATE BANK,SYNB0009955,KALPENI,KALPENI BRANCH P O KALPENI U T OF LAKSHADWEEP VIA GPO KOCHI 682557,,KALPENI,LAKSHADWEEP,LAKSHADWEEP
SYNDICATE BANK,SYNB0009954,AGATHY,AGATH ISLAND VIA HPO KOCHI DIST LAKSHWADEEP LAKSHADEEP 682553,,AGATHY,LAKSHDWEEP,LAKSHADWEEP
SYNDICATE BANK,SYNB0009953,AMENI,AMENI ISLANDVIA HPO KOCHILAKSHADWEEPPIN 682 552,,AMENI,LAKSHADWEEP,LAKSHADWEEP
SYNDICATE BANK,SYNB0009952,ANDROTH,"ANDROTH,ISLAND,VIA,H,P,O,KOCHI,UTLAKSHADWEEP,LAKSHADWEEP,DIST,PIN,682,551",,ANDROTH,LAKSHDWEEP,LAKSHADWEEP
SYNDICATE BANK,SYNB0009951,MINICOY,VIA HPO KOCHI LAKSHADWEEP ISLANDS DIST LAKSHADWEEP 682559,,MINICOYISLANDS,LAKSHDWEEP,LAKSHADWEEP
SYNDICATE BANK,SYNB0009950,KAVARATTI,P O KOCHI LAKSHADWEEP U T OF LAKSHADWEEP 682 555,,KAVARATTI,ERNAKULAM,KERALA
SYNDICATE BANK,SYNB0009949,PANKI KANPUR,"CF-3 15,SITE III PANKI INDUSTRIAL ESTATE LOHIA CIRCLE,PANKI KANPUR UTTAR PRADESH INDIA 208020",2531790,KANPUR,KANPUR CITY,UTTAR PRADESH
SYNDICATE BANK,SYNB0009946,BIRHANA ROAD,26 102 BIRHANA ROAD KANPUR NAGAR DISTT KANPUR UTTAR PRADESH INDIA-208001,2201364,KANPUR,KANPUR CITY,UTTAR PRADESH
SYNDICATE BANK,SYNB0009944,CROSSING REPUBLIC GHAZIABAD,NEWTECH LA GRACIS C - 3 CROSSING REPUBLIC GHAZIABAD GHAZIABAD UTTAR PRADESH INDIA201016,2822203,GHAZIABAD,GHAZIABAD,UTTAR PRADESH
SYNDICATE BANK,SYNB0009942,SARAIMEER AZAMGARH,SYNDICATE BANK FAHAD MARKET MAIN ROAD SARAIMEER DIST AZAMGARH AZAMGARH UTTAR PRADESH INDIA 276305,2108595,SARAI MIR,AZAMGARH,UTTAR PRADESH
SYNDICATE BANK,SYNB0009940,SANJAY NAGAR,"SANJAY NAGAR BRANCH,PLOT NO 9 SANJAY NAGAR DISTRICT CENTRE SECTOR 23 SANJAY NAGAR GHAZIABAD UP INDIA 201001",2968475,GHAZIABAD,GHAZIABAD,UTTAR PRADESH
SYNDICATE BANK,SYNB0009939,BAKSAR,"RAJ PALACE,NH-24,MAIN ROAD,TEHSIL -GARH MUKTESHWAR,PO SIMBHAOLI,DISTRICT HAPUR HAPUR UTTAR PRADESH 245207",2968475,HAPUR,HAPUR,UTTAR PRADESH
SYNDICATE BANK,SYNB0009938,NOIDA SECTOR,NOIDA SECTOR 51 HOSHIARPUR HOSHIARPUR NOIDA UTTAR PRADESH INDIA 201301,2968475,NOIDA,GAUTAM BUDDHA NAGAR,UTTAR PRADESH
SYNDICATE BANK,SYNB0009937,NAN,NAN THANA TEHSIL HAPUR DIST NAN UTTAR PRADESH 245101,2790145,NAN,HAPUR,UTTAR PRADESH
SYNDICATE BANK,SYNB0009936,RANIA KANPUR,"HOUSE NO 252,NH 2 MAIN ROAD,RANIA KANPUR,DEHAT KANPUR UTTAR PRADESH INDIA 209304",2531790,RANIA,KANPUR DEHAT,UTTAR PRADESH
SYNDICATE BANK,SYNB0009935,MAJHAWAN,VILLAGE AND POST MAJHAWAN DIST KANPUR NAGAR KANPUR KANPUR UTTAR PRADHESH INDIA 209207,2613686,MAJHAWAN TOWNSHIP,KANPUR CITY,UTTAR PRADESH
SYNDICATE BANK,SYNB0009934,SARH,VILL SARH PO SARH DISTT.KANPUR UTTAR PRADESH INDIA 209401,2613686,KANPUR,KANPUR CITY,UTTAR PRADESH
SYNDICATE BANK,SYNB0009933,UDHARANPUR,"NEAR ARYAVARAT GRAMIN BANK UDHARANPUR,TEH.SHAHABAD DIST.HARDOI UTTAR PRADESH INDIA 241124",2613686,SHAHABAD,HARDOI,UTTAR PRADESH
SYNDICATE BANK,SYNB0009932,AHIBARANPUR,K 538/K AHIBARANPUR SITAPUR ROAD LUCKNOW UTTAR PRADESH INDIA 226020,2613686,LUCKNOW,LUCKNOW,UTTAR PRADESH
SYNDICATE BANK,SYNB0009931,NIGOHA,NIGOHA RAEIBAREILLY ROAD LUCKNOW UTTAR PRADESH INDIA -226302,2613036,LUCKNOW,LUCKNOW,UTTAR PRADESH
SYNDICATE BANK,SYNB0009930,NOORNAGAR BHADARSE,"VILL NOORNAGAR BHADARSE PO CHANDRAWAL,TEHSIL LUCKNOW SADAR DIST LUCKNOW UTTAR PRADESH INDIA 226002",2613036,LUCKNOW,LUCKNOW,UTTAR PRADESH
SYNDICATE BANK,SYNB0009914,NEIL KENDRA,"SYNDICATE BANK,ROOM NO 1 C O KALIPADA MISTRY,BUILDING NEIL KENDRA,SOUTH ANDAMAN ANDAMAN AND NICOBAR INDIA -744104",25219967,PORT BLAIR,ANDAMAN,ANDAMAN AND NICOBAR ISLAND
SYNDICATE BANK,SYNB0009913,DIGLIPUR,MADHUPUR DIGLIPUR NORTH ANDAMAN 744202,,DIGLIPUR,DIGLIPUR NORTH,ANDAMAN AND NICOBAR ISLAND
SYNDICATE BANK,SYNB0009912,LONG ISLAND,CIRCLE ROAD LONG ISLAND MIDDLE ANDAMAN LONG ISLAND ANDAMAN AND NICOBAR ISLAND 744203,,LONG ISLAND,MIDDLE ANDAMAN,ANDAMAN AND NICOBAR ISLAND
SYNDICATE BANK,SYNB0009911,MUNICIPALCONCIL PORTBLAIR,UTTAR PRADESHUTTAR PRADESHUTTAR PRADESHUTTAR PRADESHUTTAR PRADESH,,PORTBLAIR,ANDAMAN,ANDAMAN AND NICOBAR ISLAND
SYNDICATE BANK,SYNB0009910,SECRETARIAT PORTBLAIR,POPORT BLAIRDIST ANDAMAN ISLANDSSTATE ANDAMAN AND NICOBARUPIN 744 101,,PORTBLAIR,ANDAMAN,ANDAMAN AND NICOBAR ISLAND
SYNDICATE BANK,SYNB0009909,DIROFHEALTHSERVICES PORTBLA,PANTH ROADPORT BLAIRDIST ANDAMAN ISLANDSSTATE ANDAMAN AND NICOBARUPIN 744 104,,PORTBLAIR,ANDAMAN,ANDAMAN AND NICOBAR ISLAND
SYNDICATE BANK,SYNB0009908,MESPORTBLAIR,HADDOPORT BLAIR ANDAMAN ISLANDSSTATE ANDAMAN AND NICOBARUPIN 744 102,,PORTBLAIR,ANDAMAN,ANDAMAN AND NICOBAR ISLAND
SYNDICATE BANK,SYNB0009905,GARACHARMA,AND NICOBAR ISLANDSDIST ANDAMAN ISLANDSSTATE ANDAMAN AND NICOBARUPIN 744 101,,GARACHARAMA,ANDAMAN,ANDAMAN AND NICOBAR ISLAND
SYNDICATE BANK,SYNB0009904,RANGAT,RANGAT BAZARRANGAT ANDAMAN ISLANDSSTATE ANDAMAN NICOBAR 744 205,,RANGAT,ANDAMAN,ANDAMAN AND NICOBAR ISLAND
SYNDICATE BANK,SYNB0009903,FERRARGANJ,ANDAMAN ISLANDSSTATE ANDAMAN AND NICOBARUPIN 744 101,,FERARGANJ,ANDAMAN,ANDAMAN AND NICOBAR ISLAND
SYNDICATE BANK,SYNB0009901,CAMPBELL BAY,CAMPBELL BAYPIN 744 302,,CAMPBELL BAY,NICOBAR ISLANDS,ANDAMAN AND NICOBAR ISLAND
SYNDICATE BANK,SYNB0009900,PORT BLAIR,19  TAGORE RD  GANDHI NAGAR  MOHANPURA PORT BLAIR 744101,,PORT BLAIR,ANDAMAN,ANDAMAN AND NICOBAR ISLAND
SYNDICATE BANK,SYNB0009899,AGRA KHANDARI BYPASS,PLOT NO 38 LAJPAT KUNJ KHANDARI ROAD AGRA UTTAR PRADESH INDIA-282002,9412250010,AGRA,AGRA,UTTAR PRADESH
SYNDICATE BANK,SYNB0009896,BAREILLY EAST,"BAREILLY EAST,NO.381/1 NEWADA SHEKHAN,PILIBHEET BYPASS ROAD,BAREILLY BAREILLY UTTAR PRADESH INDIA 243005",2410089,BAREILLY,BAREILLY,UTTAR PRADESH
SYNDICATE BANK,SYNB0009895,DASNA,KALLUGARHI ROAD OPPOSITE RIM FACTORY DASNA GHAZIABAD UTTAR PRADESH 201015,2968475,DASNA,GHAZIABAD,UTTAR PRADESH
SYNDICATE BANK,SYNB0009894,AURAI,VILL AND PO AURAI G T ROAD OPP POLICE STATION AURAI SANT RAVI DAS NAGAR UTTAR PRADESH INDIA 221301,2108595,AURAI,SANT RAVIDAS NAGAR,UTTAR PRADESH
SYNDICATE BANK,SYNB0009893,BAIDVAR KALA,VILL BAIDWAR KALA KORAON PO ALLAHABAD ALLAHABAD UTTAR PRADESH INDIA 212306,2108595,ALLAHABAD,ALLAHABAD,UTTAR PRADESH
SYNDICATE BANK,SYNB0009892,TAMBOUR,HAZI MARKET AHMADABADGANJ-I AHARPUR ROAD TAMBOUR SITAPUR UTTAR PRADESH INDIA 261208,2613686,TAMBOUR,SITAPUR,UTTAR PRADESH
SYNDICATE BANK,SYNB0009891,BALAMAU,BALAMAU NEAR PANCHAYAT BHAVAN DIST - HARDOI UTTAR PRADESH INDIA -241126,2613036,HARDOI,ALIGARH,UTTAR PRADESH
SYNDICATE BANK,SYNB0009890,SANDILA,"VILL AND PO VIMLA BHASKER BHAVAN LUCKNOW ROAD,SUMBABAG SANDILA,DISTT HARDOI HARDOI UTTAR PRADESH INDIA 241204",2613686,HARDOI,ALIGARH,UTTAR PRADESH
SYNDICATE BANK,SYNB0009889,CHINHAT LUCKNOW,SHIROMANI SQUARE MATIYARI CHAURAHA CHINHAT LUCKNOW UTTAR PRADESH INDIA 226028,2613686,LUCKNOW,LUCKNOW,UTTAR PRADESH
SYNDICATE BANK,SYNB0009888,VIKASH NAGAR LUCKNOW,PLOT NO 9 SECTOR 9 24M DIVIDER ROAD VIKASH NAGAR LUCKNOW UTTAR PRADESH INDIA 226022,2613686,LUCKNOW,LUCKNOW,UTTAR PRADESH
SYNDICATE BANK,SYNB0009887,KURSI ROAD LUCKNOW,OPP GUDAMBA THANA KURSI ROAD LUCKNOW LUCKNOW UTTAR PRADESH INDIA 226026,2613686,LUCKNOW,LUCKNOW,UTTAR PRADESH
SYNDICATE BANK,SYNB0009886,VIBHUTI KHAND,ROHTAS PLUMERIA VIBHUTI KHAND GOMTI NAGAR LUCKNOW UTTAR PRADESH INDIA 226010,2613686,LUCKNOW,LUCKNOW,UTTAR PRADESH
SYNDICATE BANK,SYNB0009885,PALRI,VILLAGE AND POST PALRI TEHSIL BARAUT BAGHPAT PALRI UTTAR PRADESH INDIA 250622,2600065,BARAUT,BAGHPAT,UTTAR PRADESH
SYNDICATE BANK,SYNB0009884,JAYAPUR,SYNDICATE BANK JAYAPUR BRANCH VILL AND PO JAYAPUR JAYAPUR UTTAR PRADESH INDIA 221305,8004930541,VARANASI,VARANASI,UTTAR PRADESH
SYNDICATE BANK,SYNB0009883,SONARPURA VARANASI,C/O JAISWAL DIGITAL STUDIO B-9/48 PHEEL KHANA SONARPURA VARANASI UTTAR PRADESH INDIA 221001,2108595,VARANASI,VARANASI,UTTAR PRADESH
SYNDICATE BANK,SYNB0009882,VISHESHWARGANJ VARANASI,1ST FLOOR RAGHUNATH COMPLEX BHAIRAVNATH CHAURAHA VISHESHWARGANJ VARANASI UTTAR PRADESH INDIA 221001,2108595,VARANASI,VARANASI,UTTAR PRADESH
SYNDICATE BANK,SYNB0009881,ORDERLY BAZAR VARANASI,H N S-2/639-38-1 VARUNA VIHAR COLON NEAR J P MEHTA INTER COLLEGE CLUB ROAD SIKRAUL VARANASI UTTAR PRADESH INDIA 221002,2108595,VARANASI,VARANASI,UTTAR PRADESH
SYNDICATE BANK,SYNB0009880,TARKULWA,"SYNDICATE BANK,PLOT NO 893,VILL AND PO TARKULWA,NEAR BANDAR GATE DIST DEORIA DEORIA UTTAR PRADESH INDIA 274408",9552556535,TARKULWA,DEORIA,UTTAR PRADESH
SYNDICATE BANK,SYNB0009879,SALEMPUR,SYNDICATE BANK OPP OLD HYDEL MAIN ROAD SALEMPUR SALEMPUR UTTAR PRADESH 274509,2108595,SALEMPUR,DEORIA,UTTAR PRADESH
SYNDICATE BANK,SYNB0009878,LAR TOWN,"SYNDICATE BANK,CHANKI MOD LAR TOWN,TEHSIL-SALEMPUR DEORIA UTTAR PRADESH INDIA -274502",2220697,SALEMPUR,DEORIA,UTTAR PRADESH
SYNDICATE BANK,SYNB0009877,JHANGAHA,"SYNDICATE BANK,PLOT NO 993 MAIN ROAD,VILLAGE JHANGAHA DISTT GORAKHPUR GORAKHPUR UTTAR PRADESH INDIA 273202",9634794388,JHANGAHA,GORAKHPUR,UTTAR PRADESH
SYNDICATE BANK,SYNB0009876,BHINGARI BAZAR,"SYNDICATE BANK,SHAHI SAW MILL BHATPAR RANI ROAD,VILL AND PO BHINGARI BAZAR,DISTT DEORIA UTTAR PRADESH INDIA 274702",9474011377,BHATPAR RANI,DEORIA,UTTAR PRADESH
SYNDICATE BANK,SYNB0009875,BARHAJ,"SYNDICATE BANK OPP JAISAL DHARMASHALA BARHAJ,DIST DEORIA DEORIA UTTAR PRADESH INDIA 274601",9838909575,BARHAJ,DEORIA,UTTAR PRADESH
SYNDICATE BANK,SYNB0009874,KHUKHUNDU CHAURAHA,"VILLAGE AND POST -KHUKHUNDU POLICA STATION -KHUKHUNDU,TEHSIL -SALEMPUR DEORIA UTTAR PRADESH INDIA 274501",2108595,SALEMPUR,DEORIA,UTTAR PRADESH
SYNDICATE BANK,SYNB0009872,MUNDERWA,"SYNDICATE BANK,VILL KITHURI PO MUNDERWA,NEAR PAANI KI TANKI DISTT BASTI BASTI UTTAR PRADESH INDIA 272170",9897082614,BASTI,AZAMGARH,UTTAR PRADESH
SYNDICATE BANK,SYNB0009871,MACHHALISHAHAR,C/O PATANJALI AROGYA KENDRA SARSWATI NAGAR NEAR ROADWAYS BUS STAND ALLAHABAD ROAD MACHHALISH JAUNPUR UTTAR PRADESH INDIA 222143,2108595,MACHHLISHAHR,JAUNPUR,UTTAR PRADESH
SYNDICATE BANK,SYNB0009870,MARIYAHU,"SYNDICATE BANK,OPPOSITE POST OFFICE MACHALISHAHAR ROAD,MARIYAHU DISTT.JAUNPUR UTTAR PRADESH INDIA 222161",2108595,JAUNPUR,JAUNPUR,UTTAR PRADESH
SYNDICATE BANK,SYNB0009869,BADLAPUR,C/O HASHMI IRON STORE VILL BHALUWAIN SULTANPUR ROAD BADLAPUR JAUNPUR UTTAR PRADESH INDIA 222125,2108595,JAUNPUR,JAUNPUR,UTTAR PRADESH
SYNDICATE BANK,SYNB0009868,OBRA,VILL BILLI OBRA CHOPAN ROAD OBRA SONEBHADRA UTTAR PRADESH INDIA 231219,2108595,OBRA,SONBHADRA,UTTAR PRADESH
SYNDICATE BANK,SYNB0009867,RENUKUT,"SYNDICATE BANK,NEAR V-MART,VARANASI SHAKTINAGAR MAIN ROAD,MURDHAWA RENUKUT,SONEBHADRA UTTAR PRADESH INDIA -231217",2220697,RENUKOOT,SONBHADRA,UTTAR PRADESH
SYNDICATE BANK,SYNB0009866,GORAKHPUR MEDICAL COLLEGE ROAD,NO 146A SHARDA SADAN INFRON OF BRD MEDICAL COLLEGE GORAKHPUR UTTAR PRADESH INDIA 273013,2108595,GORAKHPUR,GORAKHPUR,UTTAR PRADESH
SYNDICATE BANK,SYNB0009865,PADRIBAZAR GORAKHPUR,"SYNDICATE BANK,TINKONIA NO.1 PADRI BAZAR GORAKHPUR DIST GORAKHPUR UTTARPRADESH INDIA 273014",8004931574,GORAKHPUR,GORAKHPUR,UTTAR PRADESH
SYNDICATE BANK,SYNB0009864,MAYA BAZAR GORAKHPUR,"SYNDICATE BANK,SHOP NO.FF 1-4 AND F12-15,1ST FLOOR,MAYA COMPLEX URDU BAZAR,MAYA BAZAR GORAKHPUR UTTAR PRADESH INDIA -273001",2220697,GORAKHPUR,GORAKHPUR,UTTAR PRADESH
SYNDICATE BANK,SYNB0009863,PILONA,VILLAGE PILONA TEHSIL MAWANA KALAN MEERUT MEERUT UTTAR PRADESH 250401,2600065,MEERUT,MEERUT,UTTAR PRADESH
SYNDICATE BANK,SYNB0009862,KHERA,VILL AND POST KHERA TEHSIL SARDHANA MEERUT MEERUT UTTAR PRADESH,2600065,MEERUT,MEERUT,UTTAR PRADESH
SYNDICATE BANK,SYNB0009861,SHIVPUR,SHOP NO 9 132 A 2 KHP SUDDIPUR SHIVPUR VARANASI UTTAR PRADESH 221003,2613686,VARANASI,VARANASI,UTTAR PRADESH
SYNDICATE BANK,SYNB0009860,LANKA,PLOT NO 2 BALAJI NAGAR COLONY LANKA SAMNE GHAT ROAD VARANASI UTTAR PRADESH 221005,2613686,VARANASI,VARANASI,UTTAR PRADESH
SYNDICATE BANK,SYNB0009859,MAHMOORGANJ,NO B 38 3A 2 NEAR SATYAM PLAZA MAHMOORGANJ VARANASI UTTAR PRADESH 221010,2613686,VARANASI,VARANASI,UTTAR PRADESH
SYNDICATE BANK,SYNB0009858,SARWAN,VILL SARWAN PO PURWA DIST UNNAO SARWAN UTTAR PRADESH INDIA 209821,2613686,PURWA,UNNAO,UTTAR PRADESH
SYNDICATE BANK,SYNB0009857,MID CORPORATE BRANCH MORADABAD,REGIONAL OFFICE MORADABAD OPP POLICE LINES MANDIR CIVIL LINES MORADABAD U P 244001,2411154,MORADABAD,MORADABAD,UTTAR PRADESH
SYNDICATE BANK,SYNB0009856,MID CORPORATE BRANCH,"SYNDICATE BANK MCB VARANASI,FIRST FLOOR,VARANASI TRADE CENTRE,MAQBOOLALAM ROAD,VARANASI,UP - 221002",2108595,VARANASI,VARANASI,UTTAR PRADESH
SYNDICATE BANK,SYNB0009855,MID CORPORATE BRANCH LUCKNOW,SKYLARK BLDG NAVAL KISHORE ROAD HAZRATGANJ LUCKNOW UTTAR PRADESH 226001,2613686,LUCKNOW,LUCKNOW,UTTAR PRADESH
SYNDICATE BANK,SYNB0009854,MCB GHAZIABAD,C 2 MAHALAKSHMI MALL1ST FLOOR RDC RAJ NAGAR GHAZIABAD GHAZIABAD UTTAR PRADESH 201002,2968475,GHAZIABAD,GHAZIABAD,UTTAR PRADESH
SYNDICATE BANK,SYNB0009852,PRATAPGARH,SADAR MOR BELAGHAT SADAR CHURAHA PRATAPGARH UTTAR PRADESH 230001,2613686,PRATAPGARH,PRATAPGARH,UTTAR PRADESH
SYNDICATE BANK,SYNB0009851,BHADOHI,CO MS DHIRAJ CARPET EXPORTS BAZAR SARDAR KHAN CHAURI ROAD BHADOHI UTTAR PRADESH 221401,2411154,BHADOHI,BHADOHI,UTTAR PRADESH
SYNDICATE BANK,SYNB0009850,SHAHPUR TIGRI,DAAN SAHAY KEE MILAK SHAHPUR TIGRI WARD NO 1 MORADABAD UTTAR PRADESH 244001,2411154,MORADABAD,MORADABAD,UTTAR PRADESH
SYNDICATE BANK,SYNB0009848,THANA BHAWAN,THANA BHAWAN NEAR SHAMLI MUZAFFARNAGAR MUZAFFARNAGAR UTTAR PRADESH 247777,2411154,MUZAFFARNAGAR,MUZAFFARNAGAR,UTTAR PRADESH
SYNDICATE BANK,SYNB0009847,SHATABDI NGR,SHATABDI NAGAR MEERUT MEERUT MEERUT UTTAR PRADESH 250002,2411154,MEERUT,MEERUT,UTTAR PRADESH
SYNDICATE BANK,SYNB0009846,NAISADAK MEERUT,NAI SADAK SHASTRI NAGAR MEERUT MEERUT UTTAR PRADESH 250004,2613686,MEERUT,MEERUT,UTTAR PRADESH
SYNDICATE BANK,SYNB0009844,AHIMAMAU LUCKNOW,SULTANPUR ROAD AHIMAMAU VILLAGE AND POST LUCKNOW UTTAR PRADESH 226002,2613686,LUCKNOW,LUCKNOW,UTTAR PRADESH
SYNDICATE BANK,SYNB0009842,BICHHAT SUJANPUR,VILL AND PO BICHHAT SUJANPUR BLOCK AND TEHSIL KHURJA BULANDSHAHAR UTTAR PRADESH 203203,250011,BULANDSHAHR,BULANDSHAHR,UTTAR PRADESH
SYNDICATE BANK,SYNB0009841,BHAMRA URF MAMRA,VILL AND PO BHAMRA URF MAMRA BLOCK GULAOTI TEHSIL BULANDSHAHAR BULANDSHAHAR UTTAR PRADESH INDIA 203408,2968475,GULAOTHI,BULANDSHAHR,UTTAR PRADESH
SYNDICATE BANK,SYNB0009840,MEERPUR,VILL PO MEERPUR BLOCK KHURJA TEHSIL KHURJA BULANDSHAHAR UTTAR PRADESH INDIA 203131,2968475,KHURJA,BULANDSHAHR,UTTAR PRADESH
SYNDICATE BANK,SYNB0009839,BANHPUR,VILL AND PO BANHPUR TEHSIL SYANA DIST BULANDSHAHAR BULANDSHAHAR UTTAR PRADESH 203402,250011,BULANDSHAHR,BULANDSHAHR,UTTAR PRADESH
SYNDICATE BANK,SYNB0009838,PATEL NAGAR,H -2 PATEL NAGAR III GHAZIABAD UTTAR PRADESH INDIA -201001,2822203,GHAZIABAD,GHAZIABAD,UTTAR PRADESH
SYNDICATE BANK,SYNB0009837,BAMNAI,VILLAGE BAMNAI PO LUHATA MURSAN SADABAD HATHRAS HATHRAS UTTAR PRADESH 281206,2600431,HATHRAS,HATHRAS,UTTAR PRADESH
SYNDICATE BANK,SYNB0009836,REGIONAL OFFICE VARANASI,B38 3 MAHARAJA NAGAR COLONY MAHAMOOR GUNJ VARANASI UTTAR PRADESH 221010,2613686,VARANASI,VARANASI,UTTAR PRADESH
SYNDICATE BANK,SYNB0009835,RAJ MILAN BRANCH,"RAJ MILAN,CHETWAN MOR PO JARAHAN DISTT SONEBHADRA SONEBHADRA UTTAR PRADESH 231216",2613686,JARHA,SONBHADRA,UTTAR PRADESH
SYNDICATE BANK,SYNB0009834,VAN BAHUAR,"VAN BAHUAR PO PAUNI,TEH ROBERTSGUNJ DISTT SONEBHADRA SONEBHADRA UTTAR PRADESH 231216",2613686,ROBERTSGANJ,SONBHADRA,UTTAR PRADESH
SYNDICATE BANK,SYNB0009832,MAGHAR,SYNDICATE BANK C 130 449 SHAHPUR OPPOSITE GEETA VATIKA ASURAN CHOWK GORAKHPUR UTTAR PRADESH 273006,2613686,GORAKHPUR,GORAKHPUR,UTTAR PRADESH
SYNDICATE BANK,SYNB0009831,MOHANPUR GADA,SPRING BELL PUBLIC SCHOOL MOHANPUR GADA DELHI ROAD SAHARANPUR UTTAR PRADESH 247451,2613686,SAHARANPUR,SAHARANPUR,UTTAR PRADESH
SYNDICATE BANK,SYNB0009830,SIMLI,VILLAGE SIMLI DISTT MUZAFFARNAGAR MUZAFFARNAGAR UTTAR PRADESH 251001,2600065,MUZAFFARNAGAR,MUZAFFARNAGAR,UTTAR PRADESH
SYNDICATE BANK,SYNB0009829,MUKARI,VILL POST MUKARI DIST BAGHPED BAGHPED UTTAR PRADESH 250615,2613686,BAGHPED,BAGHPED,UTTAR PRADESH
SYNDICATE BANK,SYNB0009828,PATWARI KA NAGLA,MAIN MARKET BARAULA BY PASS ROAD PATWARI KA NAGLA ALIGARH UTTAR PRADESH 202002,2600431,ALIGARH,ALIGARH,UTTAR PRADESH
SYNDICATE BANK,SYNB0009827,MAHESHPUR,RPS INTER COLLEGE VILLAGE MAHESHPUR BY PASS ROAD ALIGARH ALIGARH UTTAR PRADESH 202121,2600431,ALIGARH,ALIGARH,UTTAR PRADESH
SYNDICATE BANK,SYNB0009826,ITORA,ITORA VILLAGE ITORA AGRA GWALIOR AGRA UTTAR PRADESH 282001,2600431,AGRA,AGRA,UTTAR PRADESH
SYNDICATE BANK,SYNB0009823,SHERPUR LOHARA,C BY O SH SHOMVIR SINGH S BY O MEHAK SINGH VILLAGE SHERPUR LOHARA BAGHPAT DIST UP 250001,,BAGHPAT DIST,BAGHPAT DIST,UTTAR PRADESH
SYNDICATE BANK,SYNB0009822,VINAYPUR,C BY O SH OM SINGH S BY O SH JIA RAM VILLAGE VINAYPUR PO RATAUL TEHSIL KHEKRA BAGHPAT DIST UP250101,,BAGHPAT DIST,BAGHPAT DIST,UTTAR PRADESH
SYNDICATE BANK,SYNB0009821,NAGORI,C BY O SH VIJENDER KUMAR SO SH KATAR S VILLAGE NAGORI PO PHALAUDA TEHSIL MAWANA MEERUT 250401,,TEHSIL MAWANA,TEHSIL MAWANA,MEGHALAYA
SYNDICATE BANK,SYNB0009820,MISHRIPUR,C BY O SUBASH CHAND S BY O HEM SINGH VILLAGE MISHRIPUR PO JHADINA TEHSIL MAWANA MEERUT UP 244205,,MEERUT,MEERUT,UTTAR PRADESH
SYNDICATE BANK,SYNB0009795,KOLKATA PURBALOK,WARD NO 109 BESIDES MARUTI SHOWROOM 434 SURVEY PARK PRUBALOK KOLKATA WEST BENGAL INDIA 700099,22908979,KOLKATA,KOLKATA,WEST BENGAL
SYNDICATE BANK,SYNB0009793,ANANDAPUR,"NO 651,FIRST FLOOR,ANADAPUR EAST,ANANDAPUR,WEST BENGAL,700107,INDIA",,ANANDAPUR,KOLKATA,WEST BENGAL
SYNDICATE BANK,SYNB0009792,MARINEHOUSE KOLKATA,KOLKATA MARINE HOUSEHASTINGSKOLKATADIST KOLKATASTATE WEST BENGALPIN 700 022,,KOLKATA,KOLKATA,WEST BENGAL
SYNDICATE BANK,SYNB0009791,KOLKATA ARMY PUBLIC SCHOOL,"ARMY PUBLIC SCHOOL,BALLYGUNGE MILITARY CAMPUS,KOLKATA,,KOLKATA L,700 019",,KOLKATA,KOLKATA,WEST BENGAL
SYNDICATE BANK,SYNB0009790,SILIGURI SEVOK ROAD,"MERCHANT SQUARE BUILIDING,C/O SARASWATI RICE MILL COMPOUND,SEVOKE ROAD,OPPOSITE PAYEL CINEMA SILIGURI WEST BENGAL INDIA 734001",22908979,SILIGURI,DARJILING,WEST BENGAL
SYNDICATE BANK,SYNB0009788,BELDA,MATRI BHAVAN BIDYASAGAR PALLY OPP BELDA BUS STAND PASCHIM MEDINIPUR WEST BENGAL INDIA 721424,8570479120,MEDINIPUR,MEDINIPUR,WEST BENGAL
SYNDICATE BANK,SYNB0009786,RANAGHAT,48 SUBHAS AVENUE FIRST FLOOR RANAGHAT NADIA DISTRICT RANAGHAT 741201,,RANAGHAT,RANAGHAT,WEST BENGAL
SYNDICATE BANK,SYNB0009785,KALYANI,"A 1 BY 3 SHOP,BLOCK A KALYANI NADIA DISTRICT WEST BENGAL KALYANI 741235",,KALYANI,KALYANI,WEST BENGAL
SYNDICATE BANK,SYNB0009784,RAIGANJ,SOCIAL WELFARE INSTITUTE RAIGANJ MOHAN BATI NEAR GEETANJALI CINEMA NORTH DINAJPUR WEST BENGAL INDIA 733130,9475812858,RAIGANJ,UTTAR DINAJPUR,WEST BENGAL
SYNDICATE BANK,SYNB0009783,FALAKATA,"BABUPARA MAIN ROAD,OPP LIC BUILDING P.O FALAKATA DIST ALIPURDUAR FALAKATA WEST BENGAL INDIA735211",22908979,FALAKATA,JALPAIGURI,WEST BENGAL
SYNDICATE BANK,SYNB0009780,SATMILE,DAKSHIN CHARAIMHEYA SATMILE PO CONTAI BLOCK EAST MIDNAPORE WEST BENGAL INDIA 721452,24435571,MEDINIPUR,MEDINIPUR,WEST BENGAL
SYNDICATE BANK,SYNB0009778,RAJENDRAPUR - NAIHATI,RAJENDRAPUR JORABORTOLLA NAIHATI NORTH 24 PARGANAS WEST BENGAL INDIA 743166,9433004076,NAIHATI,NORTH 24 PARGANAS,WEST BENGAL
SYNDICATE BANK,SYNB0009777,MATHABHANGA,"WARD NO 5,DAKSHINPARA,SITALKUCHI ROAD,P.O MATHABHANGA DIST COOCHBEHAR MATHABHANGA WEST BENGAL INDIA736146",22908979,MATHABHANGA,KOCH BIHAR,WEST BENGAL
SYNDICATE BANK,SYNB0009776,RAJARHAT,"ORCHID PLAZA,KATHGOLA,NEAR RAJARHAT P S,RAJARHAT 700136",,RAJARHAT,KOLKATA,WEST BENGAL
SYNDICATE BANK,SYNB0009775,KOLKATA DUM DUM AIRPORT,"NO 17 TARUN SENGUPTA SARANI,ITALGACHA,DUM DUM AIRPORT,KOLKATA,NORTH 24 PARGANAS L,700 028",,KOLKATA,SOUTH 24 PARGANAS,WEST BENGAL
SYNDICATE BANK,SYNB0009774,BARRACKPORE,"NO 195 BARASAT ROAD,NONACHANDPUKUR BLOCK,BARRACKPORE,,NORTH 24 PARGANAS L,700 122",,BARRACKPORE,SOUTH 24 PARGANAS,WEST BENGAL
SYNDICATE BANK,SYNB0009773,KAMARHATI PRABARTAK JUTE MILLS,"NO 7 SUBAL APARTMENTS,NILGANJ ROAD, BELGHORIA,KOLKATA,,NORTH 24 PARGANAS L,700 056",,KOLKATA,SOUTH 24 PARGANAS,WEST BENGAL
SYNDICATE BANK,SYNB0009772,HABRA,"JESSORE ROAD,JOYGACHHI,HABRA,,NORTH 24 PARGANAS L,743 263",,HABRA,SOUTH 24 PARGANAS,WEST BENGAL
SYNDICATE BANK,SYNB0009771,BAGUIATI,"MANORAMA KUTHIR,H BY H-8, ASWINI NAGAR,BLOCK RAJARHAT,BAGUIATI,NORTH 24 PARGANAS L,700 059",,BAGUIATI,SOUTH 24 PARGANAS,WEST BENGAL
SYNDICATE BANK,SYNB0009768,MID CORPORATE BRANCH KOLKATA,"6,N S ROAD KOLKATA WEST BENGAL 700001",24435571,KOLKATA,KOLKATA,WEST BENGAL
SYNDICATE BANK,SYNB0009767,CHAK DAULAT,THAKURPUKUR BAKHRAT ROAD VILL CHAK DAULAT DIST 24 PARGANAS(SOUTH ) WEST BENGAL 743377,24435571,DHOLAHAT,SOUTH 24 PARGANAS,WEST BENGAL
SYNDICATE BANK,SYNB0009766,PROSADPUR,VILL.PROSADPUR PO HARIBHANGA DIST MURSHIDABAD MURSHIDABAD WEST BENGAL 742302 INDIA,,MURSHIDABAD,MURSHIDABAD,WEST BENGAL
